<?xml version="1.0" encoding="UTF-8" standalone="no" ?>
<gpx xmlns="http://www.topografix.com/GPX/1/1" creator="http://nakarte.me" xmlns:xsi="http://www.w3.org/2001/XMLSchema-instance" xsi:schemaLocation="http://www.topografix.com/GPX/1/1 http://www.topografix.com/GPX/1/1/gpx.xsd" version="1.1">
	<metadata>
		<time>2026-09-18T11:53:08.656Z</time>
	</metadata>
	<wpt lat="53.795331" lon="27.085013">
		<name>Брод</name>
	</wpt>
	<wpt lat="53.808635" lon="26.969978">
		<name>Пункт питания</name>
	</wpt>
	<wpt lat="53.843912" lon="27.008001">
		<name>Сопровождение автомобилем</name>
	</wpt>
	<wpt lat="53.853117" lon="26.941139">
		<name>Пункт питания</name>
	</wpt>
	<wpt lat="53.852838" lon="26.848656">
		<name>Пункт питания</name>
	</wpt>
	<wpt lat="54.027632" lon="26.837498">
		<name>Пункт питания</name>
	</wpt>
	<wpt lat="54.018985" lon="26.862604">
		<name>Магазин 08:00–20:00</name>
	</wpt>
	<wpt lat="53.969911" lon="26.834773">
		<name>Магазин 10:00–20:00</name>
	</wpt>
	<wpt lat="53.870540" lon="26.954722">
		<name>Магазин 09:00–19:00</name>
	</wpt>
	<wpt lat="53.904487" lon="26.805226">
		<name>Магазин 10:00–19:00</name>
	</wpt>
	<wpt lat="53.853396" lon="26.946460">
		<name>Брод</name>
	</wpt>
	<trk>
		<name>15 ГревелВЕЛО120</name>
		<trkseg>
			<trkpt lat="53.821467" lon="27.019953"><time>1970-01-01T00:00:01.000Z</time></trkpt>
			<trkpt lat="53.821874" lon="27.018816"><time>1970-01-01T00:00:01.000Z</time></trkpt>
			<trkpt lat="53.822218" lon="27.018387"><time>1970-01-01T00:00:01.000Z</time></trkpt>
			<trkpt lat="53.822347" lon="27.018022"><time>1970-01-01T00:00:01.000Z</time></trkpt>
			<trkpt lat="53.823076" lon="27.010726"><time>1970-01-01T00:00:01.000Z</time></trkpt>
			<trkpt lat="53.823377" lon="27.008301"><time>1970-01-01T00:00:01.000Z</time></trkpt>
			<trkpt lat="53.823419" lon="27.007851"><time>1970-01-01T00:00:01.000Z</time></trkpt>
			<trkpt lat="53.823312" lon="27.007615"><time>1970-01-01T00:00:01.000Z</time></trkpt>
			<trkpt lat="53.822411" lon="27.006842"><time>1970-01-01T00:00:01.000Z</time></trkpt>
			<trkpt lat="53.822904" lon="27.004332"><time>1970-01-01T00:00:01.000Z</time></trkpt>
			<trkpt lat="53.823012" lon="27.004224"><time>1970-01-01T00:00:01.000Z</time></trkpt>
			<trkpt lat="53.824020" lon="27.004375"><time>1970-01-01T00:00:01.000Z</time></trkpt>
			<trkpt lat="53.825265" lon="27.004074"><time>1970-01-01T00:00:01.000Z</time></trkpt>
			<trkpt lat="53.826617" lon="27.004461"><time>1970-01-01T00:00:01.000Z</time></trkpt>
			<trkpt lat="53.827389" lon="27.004482"><time>1970-01-01T00:00:01.000Z</time></trkpt>
			<trkpt lat="53.829664" lon="27.004418"><time>1970-01-01T00:00:01.000Z</time></trkpt>
			<trkpt lat="53.832625" lon="27.004182"><time>1970-01-01T00:00:01.000Z</time></trkpt>
			<trkpt lat="53.834942" lon="27.003881"><time>1970-01-01T00:00:01.000Z</time></trkpt>
			<trkpt lat="53.835264" lon="27.003903"><time>1970-01-01T00:00:01.000Z</time></trkpt>
			<trkpt lat="53.835758" lon="27.004117"><time>1970-01-01T00:00:01.000Z</time></trkpt>
			<trkpt lat="53.843439" lon="27.008044"><time>1970-01-01T00:00:01.000Z</time></trkpt>
			<trkpt lat="53.843697" lon="27.008087"><time>1970-01-01T00:00:01.000Z</time></trkpt>
			<trkpt lat="53.846787" lon="27.005705"><time>1970-01-01T00:00:01.000Z</time></trkpt>
			<trkpt lat="53.846937" lon="27.005469"><time>1970-01-01T00:00:01.000Z</time></trkpt>
			<trkpt lat="53.851550" lon="26.987745"><time>1970-01-01T00:00:01.000Z</time></trkpt>
			<trkpt lat="53.852774" lon="26.982595"><time>1970-01-01T00:00:01.000Z</time></trkpt>
			<trkpt lat="53.852816" lon="26.981823"><time>1970-01-01T00:00:01.000Z</time></trkpt>
			<trkpt lat="53.851980" lon="26.973733"><time>1970-01-01T00:00:01.000Z</time></trkpt>
			<trkpt lat="53.851465" lon="26.968347"><time>1970-01-01T00:00:01.000Z</time></trkpt>
			<trkpt lat="53.851422" lon="26.967210"><time>1970-01-01T00:00:01.000Z</time></trkpt>
			<trkpt lat="53.851701" lon="26.962790"><time>1970-01-01T00:00:01.000Z</time></trkpt>
			<trkpt lat="53.851829" lon="26.962275"><time>1970-01-01T00:00:01.000Z</time></trkpt>
			<trkpt lat="53.851937" lon="26.962103"><time>1970-01-01T00:00:01.000Z</time></trkpt>
			<trkpt lat="53.852108" lon="26.962060"><time>1970-01-01T00:00:01.000Z</time></trkpt>
			<trkpt lat="53.853482" lon="26.962575"><time>1970-01-01T00:00:01.000Z</time></trkpt>
			<trkpt lat="53.854082" lon="26.962597"><time>1970-01-01T00:00:01.000Z</time></trkpt>
			<trkpt lat="53.855027" lon="26.962876"><time>1970-01-01T00:00:01.000Z</time></trkpt>
			<trkpt lat="53.857022" lon="26.963584"><time>1970-01-01T00:00:01.000Z</time></trkpt>
			<trkpt lat="53.857172" lon="26.963498"><time>1970-01-01T00:00:01.000Z</time></trkpt>
			<trkpt lat="53.857323" lon="26.963326"><time>1970-01-01T00:00:01.000Z</time></trkpt>
			<trkpt lat="53.857559" lon="26.962725"><time>1970-01-01T00:00:01.000Z</time></trkpt>
			<trkpt lat="53.858395" lon="26.960193"><time>1970-01-01T00:00:01.000Z</time></trkpt>
			<trkpt lat="53.858760" lon="26.959571"><time>1970-01-01T00:00:01.000Z</time></trkpt>
			<trkpt lat="53.859383" lon="26.959056"><time>1970-01-01T00:00:01.000Z</time></trkpt>
			<trkpt lat="53.860412" lon="26.958648"><time>1970-01-01T00:00:01.000Z</time></trkpt>
			<trkpt lat="53.861378" lon="26.958112"><time>1970-01-01T00:00:01.000Z</time></trkpt>
			<trkpt lat="53.863159" lon="26.957533"><time>1970-01-01T00:00:01.000Z</time></trkpt>
			<trkpt lat="53.863717" lon="26.957447"><time>1970-01-01T00:00:01.000Z</time></trkpt>
			<trkpt lat="53.864296" lon="26.957468"><time>1970-01-01T00:00:01.000Z</time></trkpt>
			<trkpt lat="53.864833" lon="26.957254"><time>1970-01-01T00:00:01.000Z</time></trkpt>
			<trkpt lat="53.866356" lon="26.956052"><time>1970-01-01T00:00:01.000Z</time></trkpt>
			<trkpt lat="53.866936" lon="26.954700"><time>1970-01-01T00:00:01.000Z</time></trkpt>
			<trkpt lat="53.867107" lon="26.954679"><time>1970-01-01T00:00:01.000Z</time></trkpt>
			<trkpt lat="53.868030" lon="26.955730"><time>1970-01-01T00:00:01.000Z</time></trkpt>
			<trkpt lat="53.868180" lon="26.955773"><time>1970-01-01T00:00:01.000Z</time></trkpt>
			<trkpt lat="53.869940" lon="26.954807"><time>1970-01-01T00:00:01.000Z</time></trkpt>
			<trkpt lat="53.870133" lon="26.954614"><time>1970-01-01T00:00:01.000Z</time></trkpt>
			<trkpt lat="53.872064" lon="26.953413"><time>1970-01-01T00:00:01.000Z</time></trkpt>
			<trkpt lat="53.873416" lon="26.952490"><time>1970-01-01T00:00:01.000Z</time></trkpt>
			<trkpt lat="53.874811" lon="26.951417"><time>1970-01-01T00:00:01.000Z</time></trkpt>
			<trkpt lat="53.874832" lon="26.951245"><time>1970-01-01T00:00:01.000Z</time></trkpt>
			<trkpt lat="53.874811" lon="26.950795"><time>1970-01-01T00:00:01.000Z</time></trkpt>
			<trkpt lat="53.874832" lon="26.950623"><time>1970-01-01T00:00:01.000Z</time></trkpt>
			<trkpt lat="53.874896" lon="26.950473"><time>1970-01-01T00:00:01.000Z</time></trkpt>
			<trkpt lat="53.875090" lon="26.950280"><time>1970-01-01T00:00:01.000Z</time></trkpt>
			<trkpt lat="53.875819" lon="26.949765"><time>1970-01-01T00:00:01.000Z</time></trkpt>
			<trkpt lat="53.876613" lon="26.949443"><time>1970-01-01T00:00:01.000Z</time></trkpt>
			<trkpt lat="53.877428" lon="26.949164"><time>1970-01-01T00:00:01.000Z</time></trkpt>
			<trkpt lat="53.878823" lon="26.948864"><time>1970-01-01T00:00:01.000Z</time></trkpt>
			<trkpt lat="53.881183" lon="26.948113"><time>1970-01-01T00:00:01.000Z</time></trkpt>
			<trkpt lat="53.882557" lon="26.947490"><time>1970-01-01T00:00:01.000Z</time></trkpt>
			<trkpt lat="53.884896" lon="26.946739"><time>1970-01-01T00:00:01.000Z</time></trkpt>
			<trkpt lat="53.893200" lon="26.944658"><time>1970-01-01T00:00:01.000Z</time></trkpt>
			<trkpt lat="53.895689" lon="26.943886"><time>1970-01-01T00:00:01.000Z</time></trkpt>
			<trkpt lat="53.895882" lon="26.944014"><time>1970-01-01T00:00:01.000Z</time></trkpt>
			<trkpt lat="53.895946" lon="26.944293"><time>1970-01-01T00:00:01.000Z</time></trkpt>
			<trkpt lat="53.895861" lon="26.948950"><time>1970-01-01T00:00:01.000Z</time></trkpt>
			<trkpt lat="53.895775" lon="26.949550"><time>1970-01-01T00:00:01.000Z</time></trkpt>
			<trkpt lat="53.895882" lon="26.950216"><time>1970-01-01T00:00:01.000Z</time></trkpt>
			<trkpt lat="53.895710" lon="26.962725"><time>1970-01-01T00:00:01.000Z</time></trkpt>
			<trkpt lat="53.895732" lon="26.964292"><time>1970-01-01T00:00:01.000Z</time></trkpt>
			<trkpt lat="53.895861" lon="26.964635"><time>1970-01-01T00:00:01.000Z</time></trkpt>
			<trkpt lat="53.895861" lon="26.964850"><time>1970-01-01T00:00:01.000Z</time></trkpt>
			<trkpt lat="53.894294" lon="26.969055"><time>1970-01-01T00:00:01.000Z</time></trkpt>
			<trkpt lat="53.894037" lon="26.969377"><time>1970-01-01T00:00:01.000Z</time></trkpt>
			<trkpt lat="53.893607" lon="26.970429"><time>1970-01-01T00:00:01.000Z</time></trkpt>
			<trkpt lat="53.893264" lon="26.971029"><time>1970-01-01T00:00:01.000Z</time></trkpt>
			<trkpt lat="53.893221" lon="26.971265"><time>1970-01-01T00:00:01.000Z</time></trkpt>
			<trkpt lat="53.893264" lon="26.971373"><time>1970-01-01T00:00:01.000Z</time></trkpt>
			<trkpt lat="53.896633" lon="26.975064"><time>1970-01-01T00:00:01.000Z</time></trkpt>
			<trkpt lat="53.899487" lon="26.977960"><time>1970-01-01T00:00:01.000Z</time></trkpt>
			<trkpt lat="53.900388" lon="26.979419"><time>1970-01-01T00:00:01.000Z</time></trkpt>
			<trkpt lat="53.901118" lon="26.981694"><time>1970-01-01T00:00:01.000Z</time></trkpt>
			<trkpt lat="53.901418" lon="26.982059"><time>1970-01-01T00:00:01.000Z</time></trkpt>
			<trkpt lat="53.901740" lon="26.982209"><time>1970-01-01T00:00:01.000Z</time></trkpt>
			<trkpt lat="53.903199" lon="26.982724"><time>1970-01-01T00:00:01.000Z</time></trkpt>
			<trkpt lat="53.904637" lon="26.983282"><time>1970-01-01T00:00:01.000Z</time></trkpt>
			<trkpt lat="53.910817" lon="26.988303"><time>1970-01-01T00:00:01.000Z</time></trkpt>
			<trkpt lat="53.912104" lon="26.989483"><time>1970-01-01T00:00:01.000Z</time></trkpt>
			<trkpt lat="53.912919" lon="26.990105"><time>1970-01-01T00:00:01.000Z</time></trkpt>
			<trkpt lat="53.916181" lon="26.992208"><time>1970-01-01T00:00:01.000Z</time></trkpt>
			<trkpt lat="53.919078" lon="26.994182"><time>1970-01-01T00:00:01.000Z</time></trkpt>
			<trkpt lat="53.923648" lon="26.997079"><time>1970-01-01T00:00:01.000Z</time></trkpt>
			<trkpt lat="53.924464" lon="26.997766"><time>1970-01-01T00:00:01.000Z</time></trkpt>
			<trkpt lat="53.924936" lon="26.998324"><time>1970-01-01T00:00:01.000Z</time></trkpt>
			<trkpt lat="53.925322" lon="26.999010"><time>1970-01-01T00:00:01.000Z</time></trkpt>
			<trkpt lat="53.926674" lon="27.002057"><time>1970-01-01T00:00:01.000Z</time></trkpt>
			<trkpt lat="53.928755" lon="27.007057"><time>1970-01-01T00:00:01.000Z</time></trkpt>
			<trkpt lat="53.929163" lon="27.007786"><time>1970-01-01T00:00:01.000Z</time></trkpt>
			<trkpt lat="53.929528" lon="27.008259"><time>1970-01-01T00:00:01.000Z</time></trkpt>
			<trkpt lat="53.929957" lon="27.008473"><time>1970-01-01T00:00:01.000Z</time></trkpt>
			<trkpt lat="53.931502" lon="27.008473"><time>1970-01-01T00:00:01.000Z</time></trkpt>
			<trkpt lat="53.932939" lon="27.008409"><time>1970-01-01T00:00:01.000Z</time></trkpt>
			<trkpt lat="53.933090" lon="27.008344"><time>1970-01-01T00:00:01.000Z</time></trkpt>
			<trkpt lat="53.933111" lon="27.008194"><time>1970-01-01T00:00:01.000Z</time></trkpt>
			<trkpt lat="53.933068" lon="27.007078"><time>1970-01-01T00:00:01.000Z</time></trkpt>
			<trkpt lat="53.932939" lon="27.006456"><time>1970-01-01T00:00:01.000Z</time></trkpt>
			<trkpt lat="53.933004" lon="27.006027"><time>1970-01-01T00:00:01.000Z</time></trkpt>
			<trkpt lat="53.933218" lon="27.005641"><time>1970-01-01T00:00:01.000Z</time></trkpt>
			<trkpt lat="53.933347" lon="27.005297"><time>1970-01-01T00:00:01.000Z</time></trkpt>
			<trkpt lat="53.933390" lon="27.004739"><time>1970-01-01T00:00:01.000Z</time></trkpt>
			<trkpt lat="53.933755" lon="27.004160"><time>1970-01-01T00:00:01.000Z</time></trkpt>
			<trkpt lat="53.934356" lon="27.003645"><time>1970-01-01T00:00:01.000Z</time></trkpt>
			<trkpt lat="53.935686" lon="27.002637"><time>1970-01-01T00:00:01.000Z</time></trkpt>
			<trkpt lat="53.935815" lon="27.002465"><time>1970-01-01T00:00:01.000Z</time></trkpt>
			<trkpt lat="53.936308" lon="27.001349"><time>1970-01-01T00:00:01.000Z</time></trkpt>
			<trkpt lat="53.936759" lon="27.000555"><time>1970-01-01T00:00:01.000Z</time></trkpt>
			<trkpt lat="53.937381" lon="26.999633"><time>1970-01-01T00:00:01.000Z</time></trkpt>
			<trkpt lat="53.938068" lon="26.998409"><time>1970-01-01T00:00:01.000Z</time></trkpt>
			<trkpt lat="53.938390" lon="26.997959"><time>1970-01-01T00:00:01.000Z</time></trkpt>
			<trkpt lat="53.938969" lon="26.997422"><time>1970-01-01T00:00:01.000Z</time></trkpt>
			<trkpt lat="53.939119" lon="26.997186"><time>1970-01-01T00:00:01.000Z</time></trkpt>
			<trkpt lat="53.939505" lon="26.994805"><time>1970-01-01T00:00:01.000Z</time></trkpt>
			<trkpt lat="53.939548" lon="26.994290"><time>1970-01-01T00:00:01.000Z</time></trkpt>
			<trkpt lat="53.939377" lon="26.992745"><time>1970-01-01T00:00:01.000Z</time></trkpt>
			<trkpt lat="53.939613" lon="26.992273"><time>1970-01-01T00:00:01.000Z</time></trkpt>
			<trkpt lat="53.940128" lon="26.991758"><time>1970-01-01T00:00:01.000Z</time></trkpt>
			<trkpt lat="53.940471" lon="26.991564"><time>1970-01-01T00:00:01.000Z</time></trkpt>
			<trkpt lat="53.940707" lon="26.991543"><time>1970-01-01T00:00:01.000Z</time></trkpt>
			<trkpt lat="53.940814" lon="26.991414"><time>1970-01-01T00:00:01.000Z</time></trkpt>
			<trkpt lat="53.940943" lon="26.991049"><time>1970-01-01T00:00:01.000Z</time></trkpt>
			<trkpt lat="53.940922" lon="26.990706"><time>1970-01-01T00:00:01.000Z</time></trkpt>
			<trkpt lat="53.941029" lon="26.990062"><time>1970-01-01T00:00:01.000Z</time></trkpt>
			<trkpt lat="53.941136" lon="26.989762"><time>1970-01-01T00:00:01.000Z</time></trkpt>
			<trkpt lat="53.941136" lon="26.989376"><time>1970-01-01T00:00:01.000Z</time></trkpt>
			<trkpt lat="53.940750" lon="26.987659"><time>1970-01-01T00:00:01.000Z</time></trkpt>
			<trkpt lat="53.940857" lon="26.987273"><time>1970-01-01T00:00:01.000Z</time></trkpt>
			<trkpt lat="53.941029" lon="26.986221"><time>1970-01-01T00:00:01.000Z</time></trkpt>
			<trkpt lat="53.941265" lon="26.985213"><time>1970-01-01T00:00:01.000Z</time></trkpt>
			<trkpt lat="53.941372" lon="26.984462"><time>1970-01-01T00:00:01.000Z</time></trkpt>
			<trkpt lat="53.941565" lon="26.983582"><time>1970-01-01T00:00:01.000Z</time></trkpt>
			<trkpt lat="53.941909" lon="26.980900"><time>1970-01-01T00:00:01.000Z</time></trkpt>
			<trkpt lat="53.941973" lon="26.980857"><time>1970-01-01T00:00:01.000Z</time></trkpt>
			<trkpt lat="53.942424" lon="26.980814"><time>1970-01-01T00:00:01.000Z</time></trkpt>
			<trkpt lat="53.943754" lon="26.980020"><time>1970-01-01T00:00:01.000Z</time></trkpt>
			<trkpt lat="53.944162" lon="26.979720"><time>1970-01-01T00:00:01.000Z</time></trkpt>
			<trkpt lat="53.944333" lon="26.979677"><time>1970-01-01T00:00:01.000Z</time></trkpt>
			<trkpt lat="53.944655" lon="26.979677"><time>1970-01-01T00:00:01.000Z</time></trkpt>
			<trkpt lat="53.945793" lon="26.979891"><time>1970-01-01T00:00:01.000Z</time></trkpt>
			<trkpt lat="53.946329" lon="26.979891"><time>1970-01-01T00:00:01.000Z</time></trkpt>
			<trkpt lat="53.947810" lon="26.980213"><time>1970-01-01T00:00:01.000Z</time></trkpt>
			<trkpt lat="53.947981" lon="26.980149"><time>1970-01-01T00:00:01.000Z</time></trkpt>
			<trkpt lat="53.948110" lon="26.979977"><time>1970-01-01T00:00:01.000Z</time></trkpt>
			<trkpt lat="53.948346" lon="26.979419"><time>1970-01-01T00:00:01.000Z</time></trkpt>
			<trkpt lat="53.948496" lon="26.978883"><time>1970-01-01T00:00:01.000Z</time></trkpt>
			<trkpt lat="53.948882" lon="26.977016"><time>1970-01-01T00:00:01.000Z</time></trkpt>
			<trkpt lat="53.949011" lon="26.976887"><time>1970-01-01T00:00:01.000Z</time></trkpt>
			<trkpt lat="53.949355" lon="26.976759"><time>1970-01-01T00:00:01.000Z</time></trkpt>
			<trkpt lat="53.949870" lon="26.976737"><time>1970-01-01T00:00:01.000Z</time></trkpt>
			<trkpt lat="53.950191" lon="26.976651"><time>1970-01-01T00:00:01.000Z</time></trkpt>
			<trkpt lat="53.950277" lon="26.976523"><time>1970-01-01T00:00:01.000Z</time></trkpt>
			<trkpt lat="53.950878" lon="26.974892"><time>1970-01-01T00:00:01.000Z</time></trkpt>
			<trkpt lat="53.951243" lon="26.973368"><time>1970-01-01T00:00:01.000Z</time></trkpt>
			<trkpt lat="53.951329" lon="26.973261"><time>1970-01-01T00:00:01.000Z</time></trkpt>
			<trkpt lat="53.951457" lon="26.973240"><time>1970-01-01T00:00:01.000Z</time></trkpt>
			<trkpt lat="53.952852" lon="26.973604"><time>1970-01-01T00:00:01.000Z</time></trkpt>
			<trkpt lat="53.953775" lon="26.973755"><time>1970-01-01T00:00:01.000Z</time></trkpt>
			<trkpt lat="53.954075" lon="26.973669"><time>1970-01-01T00:00:01.000Z</time></trkpt>
			<trkpt lat="53.954891" lon="26.973969"><time>1970-01-01T00:00:01.000Z</time></trkpt>
			<trkpt lat="53.958388" lon="26.976308"><time>1970-01-01T00:00:01.000Z</time></trkpt>
			<trkpt lat="53.959354" lon="26.976995"><time>1970-01-01T00:00:01.000Z</time></trkpt>
			<trkpt lat="53.962272" lon="26.978904"><time>1970-01-01T00:00:01.000Z</time></trkpt>
			<trkpt lat="53.962894" lon="26.979226"><time>1970-01-01T00:00:01.000Z</time></trkpt>
			<trkpt lat="53.963495" lon="26.979462"><time>1970-01-01T00:00:01.000Z</time></trkpt>
			<trkpt lat="53.964589" lon="26.979827"><time>1970-01-01T00:00:01.000Z</time></trkpt>
			<trkpt lat="53.964954" lon="26.980020"><time>1970-01-01T00:00:01.000Z</time></trkpt>
			<trkpt lat="53.965534" lon="26.980256"><time>1970-01-01T00:00:01.000Z</time></trkpt>
			<trkpt lat="53.966263" lon="26.980492"><time>1970-01-01T00:00:01.000Z</time></trkpt>
			<trkpt lat="53.966392" lon="26.980578"><time>1970-01-01T00:00:01.000Z</time></trkpt>
			<trkpt lat="53.966714" lon="26.981157"><time>1970-01-01T00:00:01.000Z</time></trkpt>
			<trkpt lat="53.967164" lon="26.981823"><time>1970-01-01T00:00:01.000Z</time></trkpt>
			<trkpt lat="53.967379" lon="26.981973"><time>1970-01-01T00:00:01.000Z</time></trkpt>
			<trkpt lat="53.967658" lon="26.981973"><time>1970-01-01T00:00:01.000Z</time></trkpt>
			<trkpt lat="53.968001" lon="26.981823"><time>1970-01-01T00:00:01.000Z</time></trkpt>
			<trkpt lat="53.968430" lon="26.981415"><time>1970-01-01T00:00:01.000Z</time></trkpt>
			<trkpt lat="53.968902" lon="26.981093"><time>1970-01-01T00:00:01.000Z</time></trkpt>
			<trkpt lat="53.969696" lon="26.980042"><time>1970-01-01T00:00:01.000Z</time></trkpt>
			<trkpt lat="53.970533" lon="26.979291"><time>1970-01-01T00:00:01.000Z</time></trkpt>
			<trkpt lat="53.971027" lon="26.978690"><time>1970-01-01T00:00:01.000Z</time></trkpt>
			<trkpt lat="53.971134" lon="26.978432"><time>1970-01-01T00:00:01.000Z</time></trkpt>
			<trkpt lat="53.971456" lon="26.977252"><time>1970-01-01T00:00:01.000Z</time></trkpt>
			<trkpt lat="53.971842" lon="26.976201"><time>1970-01-01T00:00:01.000Z</time></trkpt>
			<trkpt lat="53.972121" lon="26.975085"><time>1970-01-01T00:00:01.000Z</time></trkpt>
			<trkpt lat="53.972422" lon="26.974291"><time>1970-01-01T00:00:01.000Z</time></trkpt>
			<trkpt lat="53.972743" lon="26.973132"><time>1970-01-01T00:00:01.000Z</time></trkpt>
			<trkpt lat="53.973366" lon="26.971716"><time>1970-01-01T00:00:01.000Z</time></trkpt>
			<trkpt lat="53.973730" lon="26.970514"><time>1970-01-01T00:00:01.000Z</time></trkpt>
			<trkpt lat="53.974203" lon="26.969206"><time>1970-01-01T00:00:01.000Z</time></trkpt>
			<trkpt lat="53.974310" lon="26.968819"><time>1970-01-01T00:00:01.000Z</time></trkpt>
			<trkpt lat="53.974374" lon="26.968261"><time>1970-01-01T00:00:01.000Z</time></trkpt>
			<trkpt lat="53.974481" lon="26.965751"><time>1970-01-01T00:00:01.000Z</time></trkpt>
			<trkpt lat="53.974889" lon="26.963584"><time>1970-01-01T00:00:01.000Z</time></trkpt>
			<trkpt lat="53.975104" lon="26.962940"><time>1970-01-01T00:00:01.000Z</time></trkpt>
			<trkpt lat="53.975190" lon="26.962361"><time>1970-01-01T00:00:01.000Z</time></trkpt>
			<trkpt lat="53.975168" lon="26.961931"><time>1970-01-01T00:00:01.000Z</time></trkpt>
			<trkpt lat="53.974996" lon="26.960751"><time>1970-01-01T00:00:01.000Z</time></trkpt>
			<trkpt lat="53.974954" lon="26.959571"><time>1970-01-01T00:00:01.000Z</time></trkpt>
			<trkpt lat="53.974975" lon="26.957661"><time>1970-01-01T00:00:01.000Z</time></trkpt>
			<trkpt lat="53.975104" lon="26.956309"><time>1970-01-01T00:00:01.000Z</time></trkpt>
			<trkpt lat="53.975426" lon="26.955365"><time>1970-01-01T00:00:01.000Z</time></trkpt>
			<trkpt lat="53.975640" lon="26.954464"><time>1970-01-01T00:00:01.000Z</time></trkpt>
			<trkpt lat="53.975855" lon="26.952619"><time>1970-01-01T00:00:01.000Z</time></trkpt>
			<trkpt lat="53.975790" lon="26.949851"><time>1970-01-01T00:00:01.000Z</time></trkpt>
			<trkpt lat="53.975833" lon="26.948928"><time>1970-01-01T00:00:01.000Z</time></trkpt>
			<trkpt lat="53.975747" lon="26.947812"><time>1970-01-01T00:00:01.000Z</time></trkpt>
			<trkpt lat="53.975876" lon="26.946396"><time>1970-01-01T00:00:01.000Z</time></trkpt>
			<trkpt lat="53.975790" lon="26.944572"><time>1970-01-01T00:00:01.000Z</time></trkpt>
			<trkpt lat="53.975790" lon="26.943521"><time>1970-01-01T00:00:01.000Z</time></trkpt>
			<trkpt lat="53.975747" lon="26.942920"><time>1970-01-01T00:00:01.000Z</time></trkpt>
			<trkpt lat="53.975769" lon="26.942362"><time>1970-01-01T00:00:01.000Z</time></trkpt>
			<trkpt lat="53.975705" lon="26.942169"><time>1970-01-01T00:00:01.000Z</time></trkpt>
			<trkpt lat="53.975490" lon="26.941847"><time>1970-01-01T00:00:01.000Z</time></trkpt>
			<trkpt lat="53.975254" lon="26.941139"><time>1970-01-01T00:00:01.000Z</time></trkpt>
			<trkpt lat="53.975254" lon="26.940602"><time>1970-01-01T00:00:01.000Z</time></trkpt>
			<trkpt lat="53.975147" lon="26.940045"><time>1970-01-01T00:00:01.000Z</time></trkpt>
			<trkpt lat="53.974954" lon="26.939701"><time>1970-01-01T00:00:01.000Z</time></trkpt>
			<trkpt lat="53.974825" lon="26.939272"><time>1970-01-01T00:00:01.000Z</time></trkpt>
			<trkpt lat="53.974803" lon="26.938800"><time>1970-01-01T00:00:01.000Z</time></trkpt>
			<trkpt lat="53.974546" lon="26.937792"><time>1970-01-01T00:00:01.000Z</time></trkpt>
			<trkpt lat="53.974460" lon="26.936740"><time>1970-01-01T00:00:01.000Z</time></trkpt>
			<trkpt lat="53.974460" lon="26.933629"><time>1970-01-01T00:00:01.000Z</time></trkpt>
			<trkpt lat="53.974374" lon="26.932899"><time>1970-01-01T00:00:01.000Z</time></trkpt>
			<trkpt lat="53.974203" lon="26.932084"><time>1970-01-01T00:00:01.000Z</time></trkpt>
			<trkpt lat="53.973559" lon="26.929831"><time>1970-01-01T00:00:01.000Z</time></trkpt>
			<trkpt lat="53.973323" lon="26.928243"><time>1970-01-01T00:00:01.000Z</time></trkpt>
			<trkpt lat="53.972550" lon="26.925732"><time>1970-01-01T00:00:01.000Z</time></trkpt>
			<trkpt lat="53.972400" lon="26.924853"><time>1970-01-01T00:00:01.000Z</time></trkpt>
			<trkpt lat="53.972164" lon="26.924166"><time>1970-01-01T00:00:01.000Z</time></trkpt>
			<trkpt lat="53.971928" lon="26.922921"><time>1970-01-01T00:00:01.000Z</time></trkpt>
			<trkpt lat="53.971713" lon="26.922149"><time>1970-01-01T00:00:01.000Z</time></trkpt>
			<trkpt lat="53.971649" lon="26.921484"><time>1970-01-01T00:00:01.000Z</time></trkpt>
			<trkpt lat="53.971585" lon="26.919574"><time>1970-01-01T00:00:01.000Z</time></trkpt>
			<trkpt lat="53.971413" lon="26.918630"><time>1970-01-01T00:00:01.000Z</time></trkpt>
			<trkpt lat="53.971134" lon="26.917900"><time>1970-01-01T00:00:01.000Z</time></trkpt>
			<trkpt lat="53.970662" lon="26.916355"><time>1970-01-01T00:00:01.000Z</time></trkpt>
			<trkpt lat="53.970340" lon="26.915476"><time>1970-01-01T00:00:01.000Z</time></trkpt>
			<trkpt lat="53.969739" lon="26.913630"><time>1970-01-01T00:00:01.000Z</time></trkpt>
			<trkpt lat="53.968902" lon="26.910669"><time>1970-01-01T00:00:01.000Z</time></trkpt>
			<trkpt lat="53.968581" lon="26.909832"><time>1970-01-01T00:00:01.000Z</time></trkpt>
			<trkpt lat="53.968473" lon="26.909424"><time>1970-01-01T00:00:01.000Z</time></trkpt>
			<trkpt lat="53.968259" lon="26.908180"><time>1970-01-01T00:00:01.000Z</time></trkpt>
			<trkpt lat="53.967894" lon="26.907279"><time>1970-01-01T00:00:01.000Z</time></trkpt>
			<trkpt lat="53.967615" lon="26.906356"><time>1970-01-01T00:00:01.000Z</time></trkpt>
			<trkpt lat="53.967443" lon="26.905498"><time>1970-01-01T00:00:01.000Z</time></trkpt>
			<trkpt lat="53.967250" lon="26.904833"><time>1970-01-01T00:00:01.000Z</time></trkpt>
			<trkpt lat="53.967186" lon="26.904360"><time>1970-01-01T00:00:01.000Z</time></trkpt>
			<trkpt lat="53.966864" lon="26.903588"><time>1970-01-01T00:00:01.000Z</time></trkpt>
			<trkpt lat="53.966521" lon="26.902601"><time>1970-01-01T00:00:01.000Z</time></trkpt>
			<trkpt lat="53.966521" lon="26.902365"><time>1970-01-01T00:00:01.000Z</time></trkpt>
			<trkpt lat="53.966671" lon="26.902086"><time>1970-01-01T00:00:01.000Z</time></trkpt>
			<trkpt lat="53.966714" lon="26.901828"><time>1970-01-01T00:00:01.000Z</time></trkpt>
			<trkpt lat="53.966392" lon="26.901292"><time>1970-01-01T00:00:01.000Z</time></trkpt>
			<trkpt lat="53.966049" lon="26.901077"><time>1970-01-01T00:00:01.000Z</time></trkpt>
			<trkpt lat="53.965791" lon="26.900798"><time>1970-01-01T00:00:01.000Z</time></trkpt>
			<trkpt lat="53.964911" lon="26.900284"><time>1970-01-01T00:00:01.000Z</time></trkpt>
			<trkpt lat="53.964589" lon="26.899661"><time>1970-01-01T00:00:01.000Z</time></trkpt>
			<trkpt lat="53.964160" lon="26.899039"><time>1970-01-01T00:00:01.000Z</time></trkpt>
			<trkpt lat="53.964010" lon="26.898717"><time>1970-01-01T00:00:01.000Z</time></trkpt>
			<trkpt lat="53.963881" lon="26.898181"><time>1970-01-01T00:00:01.000Z</time></trkpt>
			<trkpt lat="53.963881" lon="26.897923"><time>1970-01-01T00:00:01.000Z</time></trkpt>
			<trkpt lat="53.963967" lon="26.897344"><time>1970-01-01T00:00:01.000Z</time></trkpt>
			<trkpt lat="53.963946" lon="26.897065"><time>1970-01-01T00:00:01.000Z</time></trkpt>
			<trkpt lat="53.963989" lon="26.896958"><time>1970-01-01T00:00:01.000Z</time></trkpt>
			<trkpt lat="53.964225" lon="26.896829"><time>1970-01-01T00:00:01.000Z</time></trkpt>
			<trkpt lat="53.967958" lon="26.894168"><time>1970-01-01T00:00:01.000Z</time></trkpt>
			<trkpt lat="53.968624" lon="26.893782"><time>1970-01-01T00:00:01.000Z</time></trkpt>
			<trkpt lat="53.969439" lon="26.893138"><time>1970-01-01T00:00:01.000Z</time></trkpt>
			<trkpt lat="53.970469" lon="26.892430"><time>1970-01-01T00:00:01.000Z</time></trkpt>
			<trkpt lat="53.971177" lon="26.891894"><time>1970-01-01T00:00:01.000Z</time></trkpt>
			<trkpt lat="53.971349" lon="26.891700"><time>1970-01-01T00:00:01.000Z</time></trkpt>
			<trkpt lat="53.971606" lon="26.891293"><time>1970-01-01T00:00:01.000Z</time></trkpt>
			<trkpt lat="53.972035" lon="26.890799"><time>1970-01-01T00:00:01.000Z</time></trkpt>
			<trkpt lat="53.972829" lon="26.889619"><time>1970-01-01T00:00:01.000Z</time></trkpt>
			<trkpt lat="53.974095" lon="26.888696"><time>1970-01-01T00:00:01.000Z</time></trkpt>
			<trkpt lat="53.975082" lon="26.888310"><time>1970-01-01T00:00:01.000Z</time></trkpt>
			<trkpt lat="53.975426" lon="26.888224"><time>1970-01-01T00:00:01.000Z</time></trkpt>
			<trkpt lat="53.975833" lon="26.888053"><time>1970-01-01T00:00:01.000Z</time></trkpt>
			<trkpt lat="53.976885" lon="26.887709"><time>1970-01-01T00:00:01.000Z</time></trkpt>
			<trkpt lat="53.977099" lon="26.887752"><time>1970-01-01T00:00:01.000Z</time></trkpt>
			<trkpt lat="53.977550" lon="26.888053"><time>1970-01-01T00:00:01.000Z</time></trkpt>
			<trkpt lat="53.977893" lon="26.887967"><time>1970-01-01T00:00:01.000Z</time></trkpt>
			<trkpt lat="53.978194" lon="26.888117"><time>1970-01-01T00:00:01.000Z</time></trkpt>
			<trkpt lat="53.978301" lon="26.888010"><time>1970-01-01T00:00:01.000Z</time></trkpt>
			<trkpt lat="53.978430" lon="26.887988"><time>1970-01-01T00:00:01.000Z</time></trkpt>
			<trkpt lat="53.979030" lon="26.888224"><time>1970-01-01T00:00:01.000Z</time></trkpt>
			<trkpt lat="53.979267" lon="26.887838"><time>1970-01-01T00:00:01.000Z</time></trkpt>
			<trkpt lat="53.979545" lon="26.887688"><time>1970-01-01T00:00:01.000Z</time></trkpt>
			<trkpt lat="53.979696" lon="26.887538"><time>1970-01-01T00:00:01.000Z</time></trkpt>
			<trkpt lat="53.979739" lon="26.887173"><time>1970-01-01T00:00:01.000Z</time></trkpt>
			<trkpt lat="53.980082" lon="26.886143"><time>1970-01-01T00:00:01.000Z</time></trkpt>
			<trkpt lat="53.980060" lon="26.885971"><time>1970-01-01T00:00:01.000Z</time></trkpt>
			<trkpt lat="53.980790" lon="26.886894"><time>1970-01-01T00:00:01.000Z</time></trkpt>
			<trkpt lat="53.981391" lon="26.887516"><time>1970-01-01T00:00:01.000Z</time></trkpt>
			<trkpt lat="53.981820" lon="26.887709"><time>1970-01-01T00:00:01.000Z</time></trkpt>
			<trkpt lat="53.982528" lon="26.888310"><time>1970-01-01T00:00:01.000Z</time></trkpt>
			<trkpt lat="53.982936" lon="26.888482"><time>1970-01-01T00:00:01.000Z</time></trkpt>
			<trkpt lat="53.983022" lon="26.888375"><time>1970-01-01T00:00:01.000Z</time></trkpt>
			<trkpt lat="53.983258" lon="26.887774"><time>1970-01-01T00:00:01.000Z</time></trkpt>
			<trkpt lat="53.983558" lon="26.887473"><time>1970-01-01T00:00:01.000Z</time></trkpt>
			<trkpt lat="53.983837" lon="26.887130"><time>1970-01-01T00:00:01.000Z</time></trkpt>
			<trkpt lat="53.985361" lon="26.886315"><time>1970-01-01T00:00:01.000Z</time></trkpt>
			<trkpt lat="53.986176" lon="26.885542"><time>1970-01-01T00:00:01.000Z</time></trkpt>
			<trkpt lat="53.987249" lon="26.884448"><time>1970-01-01T00:00:01.000Z</time></trkpt>
			<trkpt lat="53.987742" lon="26.884019"><time>1970-01-01T00:00:01.000Z</time></trkpt>
			<trkpt lat="53.988515" lon="26.883375"><time>1970-01-01T00:00:01.000Z</time></trkpt>
			<trkpt lat="53.989588" lon="26.882667"><time>1970-01-01T00:00:01.000Z</time></trkpt>
			<trkpt lat="53.990038" lon="26.882452"><time>1970-01-01T00:00:01.000Z</time></trkpt>
			<trkpt lat="53.991905" lon="26.881766"><time>1970-01-01T00:00:01.000Z</time></trkpt>
			<trkpt lat="53.993815" lon="26.881079"><time>1970-01-01T00:00:01.000Z</time></trkpt>
			<trkpt lat="53.996347" lon="26.880242"><time>1970-01-01T00:00:01.000Z</time></trkpt>
			<trkpt lat="53.997248" lon="26.879899"><time>1970-01-01T00:00:01.000Z</time></trkpt>
			<trkpt lat="53.997484" lon="26.879663"><time>1970-01-01T00:00:01.000Z</time></trkpt>
			<trkpt lat="53.998021" lon="26.878826"><time>1970-01-01T00:00:01.000Z</time></trkpt>
			<trkpt lat="53.998299" lon="26.878182"><time>1970-01-01T00:00:01.000Z</time></trkpt>
			<trkpt lat="53.998793" lon="26.876852"><time>1970-01-01T00:00:01.000Z</time></trkpt>
			<trkpt lat="53.999093" lon="26.876208"><time>1970-01-01T00:00:01.000Z</time></trkpt>
			<trkpt lat="53.999523" lon="26.875672"><time>1970-01-01T00:00:01.000Z</time></trkpt>
			<trkpt lat="54.000252" lon="26.874942"><time>1970-01-01T00:00:01.000Z</time></trkpt>
			<trkpt lat="54.002827" lon="26.873182"><time>1970-01-01T00:00:01.000Z</time></trkpt>
			<trkpt lat="54.003857" lon="26.872539"><time>1970-01-01T00:00:01.000Z</time></trkpt>
			<trkpt lat="54.004200" lon="26.872474"><time>1970-01-01T00:00:01.000Z</time></trkpt>
			<trkpt lat="54.004393" lon="26.872474"><time>1970-01-01T00:00:01.000Z</time></trkpt>
			<trkpt lat="54.005767" lon="26.872818"><time>1970-01-01T00:00:01.000Z</time></trkpt>
			<trkpt lat="54.005981" lon="26.872796"><time>1970-01-01T00:00:01.000Z</time></trkpt>
			<trkpt lat="54.006282" lon="26.872710"><time>1970-01-01T00:00:01.000Z</time></trkpt>
			<trkpt lat="54.006711" lon="26.872389"><time>1970-01-01T00:00:01.000Z</time></trkpt>
			<trkpt lat="54.006883" lon="26.872174"><time>1970-01-01T00:00:01.000Z</time></trkpt>
			<trkpt lat="54.007097" lon="26.871766"><time>1970-01-01T00:00:01.000Z</time></trkpt>
			<trkpt lat="54.007891" lon="26.869792"><time>1970-01-01T00:00:01.000Z</time></trkpt>
			<trkpt lat="54.008084" lon="26.869191"><time>1970-01-01T00:00:01.000Z</time></trkpt>
			<trkpt lat="54.008256" lon="26.868869"><time>1970-01-01T00:00:01.000Z</time></trkpt>
			<trkpt lat="54.009930" lon="26.866981"><time>1970-01-01T00:00:01.000Z</time></trkpt>
			<trkpt lat="54.011367" lon="26.865758"><time>1970-01-01T00:00:01.000Z</time></trkpt>
			<trkpt lat="54.013921" lon="26.863827"><time>1970-01-01T00:00:01.000Z</time></trkpt>
			<trkpt lat="54.014264" lon="26.863591"><time>1970-01-01T00:00:01.000Z</time></trkpt>
			<trkpt lat="54.014564" lon="26.863462"><time>1970-01-01T00:00:01.000Z</time></trkpt>
			<trkpt lat="54.015122" lon="26.863376"><time>1970-01-01T00:00:01.000Z</time></trkpt>
			<trkpt lat="54.016624" lon="26.863312"><time>1970-01-01T00:00:01.000Z</time></trkpt>
			<trkpt lat="54.017418" lon="26.863290"><time>1970-01-01T00:00:01.000Z</time></trkpt>
			<trkpt lat="54.018126" lon="26.863312"><time>1970-01-01T00:00:01.000Z</time></trkpt>
			<trkpt lat="54.018427" lon="26.863376"><time>1970-01-01T00:00:01.000Z</time></trkpt>
			<trkpt lat="54.018534" lon="26.863333"><time>1970-01-01T00:00:01.000Z</time></trkpt>
			<trkpt lat="54.018598" lon="26.863140"><time>1970-01-01T00:00:01.000Z</time></trkpt>
			<trkpt lat="54.018834" lon="26.861831"><time>1970-01-01T00:00:01.000Z</time></trkpt>
			<trkpt lat="54.019564" lon="26.857132"><time>1970-01-01T00:00:01.000Z</time></trkpt>
			<trkpt lat="54.020165" lon="26.854021"><time>1970-01-01T00:00:01.000Z</time></trkpt>
			<trkpt lat="54.020809" lon="26.853441"><time>1970-01-01T00:00:01.000Z</time></trkpt>
			<trkpt lat="54.021066" lon="26.853098"><time>1970-01-01T00:00:01.000Z</time></trkpt>
			<trkpt lat="54.021281" lon="26.852712"><time>1970-01-01T00:00:01.000Z</time></trkpt>
			<trkpt lat="54.022761" lon="26.848699"><time>1970-01-01T00:00:01.000Z</time></trkpt>
			<trkpt lat="54.023298" lon="26.847498"><time>1970-01-01T00:00:01.000Z</time></trkpt>
			<trkpt lat="54.023705" lon="26.846124"><time>1970-01-01T00:00:01.000Z</time></trkpt>
			<trkpt lat="54.023856" lon="26.845888"><time>1970-01-01T00:00:01.000Z</time></trkpt>
			<trkpt lat="54.024285" lon="26.845416"><time>1970-01-01T00:00:01.000Z</time></trkpt>
			<trkpt lat="54.024650" lon="26.844837"><time>1970-01-01T00:00:01.000Z</time></trkpt>
			<trkpt lat="54.024864" lon="26.844021"><time>1970-01-01T00:00:01.000Z</time></trkpt>
			<trkpt lat="54.025465" lon="26.842348"><time>1970-01-01T00:00:01.000Z</time></trkpt>
			<trkpt lat="54.027418" lon="26.838078"><time>1970-01-01T00:00:01.000Z</time></trkpt>
			<trkpt lat="54.027525" lon="26.837713"><time>1970-01-01T00:00:01.000Z</time></trkpt>
			<trkpt lat="54.027568" lon="26.837327"><time>1970-01-01T00:00:01.000Z</time></trkpt>
			<trkpt lat="54.027503" lon="26.836683"><time>1970-01-01T00:00:01.000Z</time></trkpt>
			<trkpt lat="54.027418" lon="26.836254"><time>1970-01-01T00:00:01.000Z</time></trkpt>
			<trkpt lat="54.027203" lon="26.835760"><time>1970-01-01T00:00:01.000Z</time></trkpt>
			<trkpt lat="54.026688" lon="26.834795"><time>1970-01-01T00:00:01.000Z</time></trkpt>
			<trkpt lat="54.026559" lon="26.834473"><time>1970-01-01T00:00:01.000Z</time></trkpt>
			<trkpt lat="54.026259" lon="26.833164"><time>1970-01-01T00:00:01.000Z</time></trkpt>
			<trkpt lat="54.025679" lon="26.831447"><time>1970-01-01T00:00:01.000Z</time></trkpt>
			<trkpt lat="54.025164" lon="26.829580"><time>1970-01-01T00:00:01.000Z</time></trkpt>
			<trkpt lat="54.024864" lon="26.828679"><time>1970-01-01T00:00:01.000Z</time></trkpt>
			<trkpt lat="54.023298" lon="26.824645"><time>1970-01-01T00:00:01.000Z</time></trkpt>
			<trkpt lat="54.022547" lon="26.822521"><time>1970-01-01T00:00:01.000Z</time></trkpt>
			<trkpt lat="54.022182" lon="26.821684"><time>1970-01-01T00:00:01.000Z</time></trkpt>
			<trkpt lat="54.021839" lon="26.820096"><time>1970-01-01T00:00:01.000Z</time></trkpt>
			<trkpt lat="54.021560" lon="26.818594"><time>1970-01-01T00:00:01.000Z</time></trkpt>
			<trkpt lat="54.021474" lon="26.818422"><time>1970-01-01T00:00:01.000Z</time></trkpt>
			<trkpt lat="54.021173" lon="26.818079"><time>1970-01-01T00:00:01.000Z</time></trkpt>
			<trkpt lat="54.021109" lon="26.817908"><time>1970-01-01T00:00:01.000Z</time></trkpt>
			<trkpt lat="54.021088" lon="26.817006"><time>1970-01-01T00:00:01.000Z</time></trkpt>
			<trkpt lat="54.021366" lon="26.815998"><time>1970-01-01T00:00:01.000Z</time></trkpt>
			<trkpt lat="54.021667" lon="26.813981"><time>1970-01-01T00:00:01.000Z</time></trkpt>
			<trkpt lat="54.021731" lon="26.813165"><time>1970-01-01T00:00:01.000Z</time></trkpt>
			<trkpt lat="54.022096" lon="26.810183"><time>1970-01-01T00:00:01.000Z</time></trkpt>
			<trkpt lat="54.022096" lon="26.809990"><time>1970-01-01T00:00:01.000Z</time></trkpt>
			<trkpt lat="54.022053" lon="26.809882"><time>1970-01-01T00:00:01.000Z</time></trkpt>
			<trkpt lat="54.020465" lon="26.808530"><time>1970-01-01T00:00:01.000Z</time></trkpt>
			<trkpt lat="54.017676" lon="26.806320"><time>1970-01-01T00:00:01.000Z</time></trkpt>
			<trkpt lat="54.017053" lon="26.805870"><time>1970-01-01T00:00:01.000Z</time></trkpt>
			<trkpt lat="54.011174" lon="26.801128"><time>1970-01-01T00:00:01.000Z</time></trkpt>
			<trkpt lat="54.010831" lon="26.800977"><time>1970-01-01T00:00:01.000Z</time></trkpt>
			<trkpt lat="54.010595" lon="26.800977"><time>1970-01-01T00:00:01.000Z</time></trkpt>
			<trkpt lat="54.009736" lon="26.801321"><time>1970-01-01T00:00:01.000Z</time></trkpt>
			<trkpt lat="54.008835" lon="26.801514"><time>1970-01-01T00:00:01.000Z</time></trkpt>
			<trkpt lat="54.008621" lon="26.801471"><time>1970-01-01T00:00:01.000Z</time></trkpt>
			<trkpt lat="54.008385" lon="26.801321"><time>1970-01-01T00:00:01.000Z</time></trkpt>
			<trkpt lat="54.005059" lon="26.798166"><time>1970-01-01T00:00:01.000Z</time></trkpt>
			<trkpt lat="54.004072" lon="26.797179"><time>1970-01-01T00:00:01.000Z</time></trkpt>
			<trkpt lat="54.000209" lon="26.793467"><time>1970-01-01T00:00:01.000Z</time></trkpt>
			<trkpt lat="53.999480" lon="26.792781"><time>1970-01-01T00:00:01.000Z</time></trkpt>
			<trkpt lat="53.999201" lon="26.792587"><time>1970-01-01T00:00:01.000Z</time></trkpt>
			<trkpt lat="53.998772" lon="26.792373"><time>1970-01-01T00:00:01.000Z</time></trkpt>
			<trkpt lat="53.997784" lon="26.792115"><time>1970-01-01T00:00:01.000Z</time></trkpt>
			<trkpt lat="53.995360" lon="26.791343"><time>1970-01-01T00:00:01.000Z</time></trkpt>
			<trkpt lat="53.993579" lon="26.790871"><time>1970-01-01T00:00:01.000Z</time></trkpt>
			<trkpt lat="53.992420" lon="26.790613"><time>1970-01-01T00:00:01.000Z</time></trkpt>
			<trkpt lat="53.992141" lon="26.790463"><time>1970-01-01T00:00:01.000Z</time></trkpt>
			<trkpt lat="53.992055" lon="26.790334"><time>1970-01-01T00:00:01.000Z</time></trkpt>
			<trkpt lat="53.992034" lon="26.790141"><time>1970-01-01T00:00:01.000Z</time></trkpt>
			<trkpt lat="53.992356" lon="26.787202"><time>1970-01-01T00:00:01.000Z</time></trkpt>
			<trkpt lat="53.992334" lon="26.786923"><time>1970-01-01T00:00:01.000Z</time></trkpt>
			<trkpt lat="53.992592" lon="26.784455"><time>1970-01-01T00:00:01.000Z</time></trkpt>
			<trkpt lat="53.992613" lon="26.783919"><time>1970-01-01T00:00:01.000Z</time></trkpt>
			<trkpt lat="53.992484" lon="26.783597"><time>1970-01-01T00:00:01.000Z</time></trkpt>
			<trkpt lat="53.992270" lon="26.783489"><time>1970-01-01T00:00:01.000Z</time></trkpt>
			<trkpt lat="53.991733" lon="26.783318"><time>1970-01-01T00:00:01.000Z</time></trkpt>
			<trkpt lat="53.991497" lon="26.783168"><time>1970-01-01T00:00:01.000Z</time></trkpt>
			<trkpt lat="53.990360" lon="26.782030"><time>1970-01-01T00:00:01.000Z</time></trkpt>
			<trkpt lat="53.989609" lon="26.781387"><time>1970-01-01T00:00:01.000Z</time></trkpt>
			<trkpt lat="53.988193" lon="26.780829"><time>1970-01-01T00:00:01.000Z</time></trkpt>
			<trkpt lat="53.986498" lon="26.780249"><time>1970-01-01T00:00:01.000Z</time></trkpt>
			<trkpt lat="53.985704" lon="26.779927"><time>1970-01-01T00:00:01.000Z</time></trkpt>
			<trkpt lat="53.981799" lon="26.778082"><time>1970-01-01T00:00:01.000Z</time></trkpt>
			<trkpt lat="53.981520" lon="26.777910"><time>1970-01-01T00:00:01.000Z</time></trkpt>
			<trkpt lat="53.981069" lon="26.777567"><time>1970-01-01T00:00:01.000Z</time></trkpt>
			<trkpt lat="53.980661" lon="26.777181"><time>1970-01-01T00:00:01.000Z</time></trkpt>
			<trkpt lat="53.977786" lon="26.773984"><time>1970-01-01T00:00:01.000Z</time></trkpt>
			<trkpt lat="53.977486" lon="26.773597"><time>1970-01-01T00:00:01.000Z</time></trkpt>
			<trkpt lat="53.977164" lon="26.772954"><time>1970-01-01T00:00:01.000Z</time></trkpt>
			<trkpt lat="53.976992" lon="26.772739"><time>1970-01-01T00:00:01.000Z</time></trkpt>
			<trkpt lat="53.976498" lon="26.772417"><time>1970-01-01T00:00:01.000Z</time></trkpt>
			<trkpt lat="53.974546" lon="26.771366"><time>1970-01-01T00:00:01.000Z</time></trkpt>
			<trkpt lat="53.973902" lon="26.770851"><time>1970-01-01T00:00:01.000Z</time></trkpt>
			<trkpt lat="53.971971" lon="26.768705"><time>1970-01-01T00:00:01.000Z</time></trkpt>
			<trkpt lat="53.970533" lon="26.766581"><time>1970-01-01T00:00:01.000Z</time></trkpt>
			<trkpt lat="53.970233" lon="26.766280"><time>1970-01-01T00:00:01.000Z</time></trkpt>
			<trkpt lat="53.969611" lon="26.765808"><time>1970-01-01T00:00:01.000Z</time></trkpt>
			<trkpt lat="53.967508" lon="26.764692"><time>1970-01-01T00:00:01.000Z</time></trkpt>
			<trkpt lat="53.967272" lon="26.764478"><time>1970-01-01T00:00:01.000Z</time></trkpt>
			<trkpt lat="53.966478" lon="26.762847"><time>1970-01-01T00:00:01.000Z</time></trkpt>
			<trkpt lat="53.966370" lon="26.762547"><time>1970-01-01T00:00:01.000Z</time></trkpt>
			<trkpt lat="53.965577" lon="26.758620"><time>1970-01-01T00:00:01.000Z</time></trkpt>
			<trkpt lat="53.964997" lon="26.756775"><time>1970-01-01T00:00:01.000Z</time></trkpt>
			<trkpt lat="53.964246" lon="26.754586"><time>1970-01-01T00:00:01.000Z</time></trkpt>
			<trkpt lat="53.963817" lon="26.752998"><time>1970-01-01T00:00:01.000Z</time></trkpt>
			<trkpt lat="53.963667" lon="26.751839"><time>1970-01-01T00:00:01.000Z</time></trkpt>
			<trkpt lat="53.963667" lon="26.751045"><time>1970-01-01T00:00:01.000Z</time></trkpt>
			<trkpt lat="53.963753" lon="26.750080"><time>1970-01-01T00:00:01.000Z</time></trkpt>
			<trkpt lat="53.963710" lon="26.749672"><time>1970-01-01T00:00:01.000Z</time></trkpt>
			<trkpt lat="53.963087" lon="26.747204"><time>1970-01-01T00:00:01.000Z</time></trkpt>
			<trkpt lat="53.962787" lon="26.745724"><time>1970-01-01T00:00:01.000Z</time></trkpt>
			<trkpt lat="53.962701" lon="26.745552"><time>1970-01-01T00:00:01.000Z</time></trkpt>
			<trkpt lat="53.962615" lon="26.745595"><time>1970-01-01T00:00:01.000Z</time></trkpt>
			<trkpt lat="53.962251" lon="26.746432"><time>1970-01-01T00:00:01.000Z</time></trkpt>
			<trkpt lat="53.961843" lon="26.747162"><time>1970-01-01T00:00:01.000Z</time></trkpt>
			<trkpt lat="53.961757" lon="26.747247"><time>1970-01-01T00:00:01.000Z</time></trkpt>
			<trkpt lat="53.961607" lon="26.747290"><time>1970-01-01T00:00:01.000Z</time></trkpt>
			<trkpt lat="53.961371" lon="26.747612"><time>1970-01-01T00:00:01.000Z</time></trkpt>
			<trkpt lat="53.961349" lon="26.747805"><time>1970-01-01T00:00:01.000Z</time></trkpt>
			<trkpt lat="53.961264" lon="26.748041"><time>1970-01-01T00:00:01.000Z</time></trkpt>
			<trkpt lat="53.961135" lon="26.748900"><time>1970-01-01T00:00:01.000Z</time></trkpt>
			<trkpt lat="53.960963" lon="26.749672"><time>1970-01-01T00:00:01.000Z</time></trkpt>
			<trkpt lat="53.960899" lon="26.750273"><time>1970-01-01T00:00:01.000Z</time></trkpt>
			<trkpt lat="53.960920" lon="26.749930"><time>1970-01-01T00:00:01.000Z</time></trkpt>
			<trkpt lat="53.960856" lon="26.750809"><time>1970-01-01T00:00:01.000Z</time></trkpt>
			<trkpt lat="53.960877" lon="26.751796"><time>1970-01-01T00:00:01.000Z</time></trkpt>
			<trkpt lat="53.960749" lon="26.755873"><time>1970-01-01T00:00:01.000Z</time></trkpt>
			<trkpt lat="53.960770" lon="26.758663"><time>1970-01-01T00:00:01.000Z</time></trkpt>
			<trkpt lat="53.961113" lon="26.760015"><time>1970-01-01T00:00:01.000Z</time></trkpt>
			<trkpt lat="53.961500" lon="26.762160"><time>1970-01-01T00:00:01.000Z</time></trkpt>
			<trkpt lat="53.961864" lon="26.763512"><time>1970-01-01T00:00:01.000Z</time></trkpt>
			<trkpt lat="53.962057" lon="26.763877"><time>1970-01-01T00:00:01.000Z</time></trkpt>
			<trkpt lat="53.962143" lon="26.763963"><time>1970-01-01T00:00:01.000Z</time></trkpt>
			<trkpt lat="53.962658" lon="26.764177"><time>1970-01-01T00:00:01.000Z</time></trkpt>
			<trkpt lat="53.963753" lon="26.764220"><time>1970-01-01T00:00:01.000Z</time></trkpt>
			<trkpt lat="53.964547" lon="26.764714"><time>1970-01-01T00:00:01.000Z</time></trkpt>
			<trkpt lat="53.964890" lon="26.764800"><time>1970-01-01T00:00:01.000Z</time></trkpt>
			<trkpt lat="53.965104" lon="26.764950"><time>1970-01-01T00:00:01.000Z</time></trkpt>
			<trkpt lat="53.965383" lon="26.765079"><time>1970-01-01T00:00:01.000Z</time></trkpt>
			<trkpt lat="53.965534" lon="26.765229"><time>1970-01-01T00:00:01.000Z</time></trkpt>
			<trkpt lat="53.965619" lon="26.765379"><time>1970-01-01T00:00:01.000Z</time></trkpt>
			<trkpt lat="53.966542" lon="26.770615"><time>1970-01-01T00:00:01.000Z</time></trkpt>
			<trkpt lat="53.966606" lon="26.770851"><time>1970-01-01T00:00:01.000Z</time></trkpt>
			<trkpt lat="53.966885" lon="26.771516"><time>1970-01-01T00:00:01.000Z</time></trkpt>
			<trkpt lat="53.966993" lon="26.772503"><time>1970-01-01T00:00:01.000Z</time></trkpt>
			<trkpt lat="53.967250" lon="26.773640"><time>1970-01-01T00:00:01.000Z</time></trkpt>
			<trkpt lat="53.967358" lon="26.774735"><time>1970-01-01T00:00:01.000Z</time></trkpt>
			<trkpt lat="53.967594" lon="26.775593"><time>1970-01-01T00:00:01.000Z</time></trkpt>
			<trkpt lat="53.967958" lon="26.776408"><time>1970-01-01T00:00:01.000Z</time></trkpt>
			<trkpt lat="53.968109" lon="26.777159"><time>1970-01-01T00:00:01.000Z</time></trkpt>
			<trkpt lat="53.968538" lon="26.778082"><time>1970-01-01T00:00:01.000Z</time></trkpt>
			<trkpt lat="53.969053" lon="26.779670"><time>1970-01-01T00:00:01.000Z</time></trkpt>
			<trkpt lat="53.970018" lon="26.782931"><time>1970-01-01T00:00:01.000Z</time></trkpt>
			<trkpt lat="53.970104" lon="26.783961"><time>1970-01-01T00:00:01.000Z</time></trkpt>
			<trkpt lat="53.970168" lon="26.785421"><time>1970-01-01T00:00:01.000Z</time></trkpt>
			<trkpt lat="53.970469" lon="26.786515"><time>1970-01-01T00:00:01.000Z</time></trkpt>
			<trkpt lat="53.970533" lon="26.786858"><time>1970-01-01T00:00:01.000Z</time></trkpt>
			<trkpt lat="53.970490" lon="26.788789"><time>1970-01-01T00:00:01.000Z</time></trkpt>
			<trkpt lat="53.970576" lon="26.789691"><time>1970-01-01T00:00:01.000Z</time></trkpt>
			<trkpt lat="53.970641" lon="26.790141"><time>1970-01-01T00:00:01.000Z</time></trkpt>
			<trkpt lat="53.971005" lon="26.791515"><time>1970-01-01T00:00:01.000Z</time></trkpt>
			<trkpt lat="53.971113" lon="26.792437"><time>1970-01-01T00:00:01.000Z</time></trkpt>
			<trkpt lat="53.971177" lon="26.793596"><time>1970-01-01T00:00:01.000Z</time></trkpt>
			<trkpt lat="53.971477" lon="26.795828"><time>1970-01-01T00:00:01.000Z</time></trkpt>
			<trkpt lat="53.971563" lon="26.796879"><time>1970-01-01T00:00:01.000Z</time></trkpt>
			<trkpt lat="53.971671" lon="26.797523"><time>1970-01-01T00:00:01.000Z</time></trkpt>
			<trkpt lat="53.971606" lon="26.798703"><time>1970-01-01T00:00:01.000Z</time></trkpt>
			<trkpt lat="53.971456" lon="26.800141"><time>1970-01-01T00:00:01.000Z</time></trkpt>
			<trkpt lat="53.971413" lon="26.801063"><time>1970-01-01T00:00:01.000Z</time></trkpt>
			<trkpt lat="53.971392" lon="26.803810"><time>1970-01-01T00:00:01.000Z</time></trkpt>
			<trkpt lat="53.971499" lon="26.805011"><time>1970-01-01T00:00:01.000Z</time></trkpt>
			<trkpt lat="53.971842" lon="26.807737"><time>1970-01-01T00:00:01.000Z</time></trkpt>
			<trkpt lat="53.972164" lon="26.810655"><time>1970-01-01T00:00:01.000Z</time></trkpt>
			<trkpt lat="53.972121" lon="26.813895"><time>1970-01-01T00:00:01.000Z</time></trkpt>
			<trkpt lat="53.972143" lon="26.814689"><time>1970-01-01T00:00:01.000Z</time></trkpt>
			<trkpt lat="53.972057" lon="26.816663"><time>1970-01-01T00:00:01.000Z</time></trkpt>
			<trkpt lat="53.971949" lon="26.817564"><time>1970-01-01T00:00:01.000Z</time></trkpt>
			<trkpt lat="53.971735" lon="26.818809"><time>1970-01-01T00:00:01.000Z</time></trkpt>
			<trkpt lat="53.971241" lon="26.822199"><time>1970-01-01T00:00:01.000Z</time></trkpt>
			<trkpt lat="53.971048" lon="26.823701"><time>1970-01-01T00:00:01.000Z</time></trkpt>
			<trkpt lat="53.970984" lon="26.825010"><time>1970-01-01T00:00:01.000Z</time></trkpt>
			<trkpt lat="53.971005" lon="26.826727"><time>1970-01-01T00:00:01.000Z</time></trkpt>
			<trkpt lat="53.970919" lon="26.827714"><time>1970-01-01T00:00:01.000Z</time></trkpt>
			<trkpt lat="53.970791" lon="26.828293"><time>1970-01-01T00:00:01.000Z</time></trkpt>
			<trkpt lat="53.970276" lon="26.829881"><time>1970-01-01T00:00:01.000Z</time></trkpt>
			<trkpt lat="53.970190" lon="26.830331"><time>1970-01-01T00:00:01.000Z</time></trkpt>
			<trkpt lat="53.970040" lon="26.831683"><time>1970-01-01T00:00:01.000Z</time></trkpt>
			<trkpt lat="53.969975" lon="26.832778"><time>1970-01-01T00:00:01.000Z</time></trkpt>
			<trkpt lat="53.969825" lon="26.833829"><time>1970-01-01T00:00:01.000Z</time></trkpt>
			<trkpt lat="53.969782" lon="26.834559"><time>1970-01-01T00:00:01.000Z</time></trkpt>
			<trkpt lat="53.969739" lon="26.834666"><time>1970-01-01T00:00:01.000Z</time></trkpt>
			<trkpt lat="53.969653" lon="26.834687"><time>1970-01-01T00:00:01.000Z</time></trkpt>
			<trkpt lat="53.969439" lon="26.834687"><time>1970-01-01T00:00:01.000Z</time></trkpt>
			<trkpt lat="53.969332" lon="26.834602"><time>1970-01-01T00:00:01.000Z</time></trkpt>
			<trkpt lat="53.969074" lon="26.834280"><time>1970-01-01T00:00:01.000Z</time></trkpt>
			<trkpt lat="53.968538" lon="26.833142"><time>1970-01-01T00:00:01.000Z</time></trkpt>
			<trkpt lat="53.968259" lon="26.832821"><time>1970-01-01T00:00:01.000Z</time></trkpt>
			<trkpt lat="53.967958" lon="26.832563"><time>1970-01-01T00:00:01.000Z</time></trkpt>
			<trkpt lat="53.966070" lon="26.831190"><time>1970-01-01T00:00:01.000Z</time></trkpt>
			<trkpt lat="53.965877" lon="26.831125"><time>1970-01-01T00:00:01.000Z</time></trkpt>
			<trkpt lat="53.965684" lon="26.831233"><time>1970-01-01T00:00:01.000Z</time></trkpt>
			<trkpt lat="53.963731" lon="26.832906"><time>1970-01-01T00:00:01.000Z</time></trkpt>
			<trkpt lat="53.962830" lon="26.833593"><time>1970-01-01T00:00:01.000Z</time></trkpt>
			<trkpt lat="53.960491" lon="26.835031"><time>1970-01-01T00:00:01.000Z</time></trkpt>
			<trkpt lat="53.959204" lon="26.835889"><time>1970-01-01T00:00:01.000Z</time></trkpt>
			<trkpt lat="53.958839" lon="26.836039"><time>1970-01-01T00:00:01.000Z</time></trkpt>
			<trkpt lat="53.956114" lon="26.836940"><time>1970-01-01T00:00:01.000Z</time></trkpt>
			<trkpt lat="53.954547" lon="26.837391"><time>1970-01-01T00:00:01.000Z</time></trkpt>
			<trkpt lat="53.954183" lon="26.837563"><time>1970-01-01T00:00:01.000Z</time></trkpt>
			<trkpt lat="53.951071" lon="26.840138"><time>1970-01-01T00:00:01.000Z</time></trkpt>
			<trkpt lat="53.949312" lon="26.841747"><time>1970-01-01T00:00:01.000Z</time></trkpt>
			<trkpt lat="53.949161" lon="26.841940"><time>1970-01-01T00:00:01.000Z</time></trkpt>
			<trkpt lat="53.949290" lon="26.843421"><time>1970-01-01T00:00:01.000Z</time></trkpt>
			<trkpt lat="53.949290" lon="26.844000"><time>1970-01-01T00:00:01.000Z</time></trkpt>
			<trkpt lat="53.949183" lon="26.845137"><time>1970-01-01T00:00:01.000Z</time></trkpt>
			<trkpt lat="53.949011" lon="26.846039"><time>1970-01-01T00:00:01.000Z</time></trkpt>
			<trkpt lat="53.948840" lon="26.846446"><time>1970-01-01T00:00:01.000Z</time></trkpt>
			<trkpt lat="53.948260" lon="26.847305"><time>1970-01-01T00:00:01.000Z</time></trkpt>
			<trkpt lat="53.947230" lon="26.848613"><time>1970-01-01T00:00:01.000Z</time></trkpt>
			<trkpt lat="53.945020" lon="26.851296"><time>1970-01-01T00:00:01.000Z</time></trkpt>
			<trkpt lat="53.944677" lon="26.851639"><time>1970-01-01T00:00:01.000Z</time></trkpt>
			<trkpt lat="53.944054" lon="26.852433"><time>1970-01-01T00:00:01.000Z</time></trkpt>
			<trkpt lat="53.943346" lon="26.853463"><time>1970-01-01T00:00:01.000Z</time></trkpt>
			<trkpt lat="53.942853" lon="26.854343"><time>1970-01-01T00:00:01.000Z</time></trkpt>
			<trkpt lat="53.942703" lon="26.854450"><time>1970-01-01T00:00:01.000Z</time></trkpt>
			<trkpt lat="53.942552" lon="26.854386"><time>1970-01-01T00:00:01.000Z</time></trkpt>
			<trkpt lat="53.940493" lon="26.852240"><time>1970-01-01T00:00:01.000Z</time></trkpt>
			<trkpt lat="53.939978" lon="26.851982"><time>1970-01-01T00:00:01.000Z</time></trkpt>
			<trkpt lat="53.938669" lon="26.851532"><time>1970-01-01T00:00:01.000Z</time></trkpt>
			<trkpt lat="53.937789" lon="26.851081"><time>1970-01-01T00:00:01.000Z</time></trkpt>
			<trkpt lat="53.937360" lon="26.850523"><time>1970-01-01T00:00:01.000Z</time></trkpt>
			<trkpt lat="53.936888" lon="26.849751"><time>1970-01-01T00:00:01.000Z</time></trkpt>
			<trkpt lat="53.934055" lon="26.843335"><time>1970-01-01T00:00:01.000Z</time></trkpt>
			<trkpt lat="53.930128" lon="26.836254"><time>1970-01-01T00:00:01.000Z</time></trkpt>
			<trkpt lat="53.929635" lon="26.835224"><time>1970-01-01T00:00:01.000Z</time></trkpt>
			<trkpt lat="53.929056" lon="26.833765"><time>1970-01-01T00:00:01.000Z</time></trkpt>
			<trkpt lat="53.927875" lon="26.831640"><time>1970-01-01T00:00:01.000Z</time></trkpt>
			<trkpt lat="53.926481" lon="26.828872"><time>1970-01-01T00:00:01.000Z</time></trkpt>
			<trkpt lat="53.926266" lon="26.828551"><time>1970-01-01T00:00:01.000Z</time></trkpt>
			<trkpt lat="53.923648" lon="26.827048"><time>1970-01-01T00:00:01.000Z</time></trkpt>
			<trkpt lat="53.923005" lon="26.826748"><time>1970-01-01T00:00:01.000Z</time></trkpt>
			<trkpt lat="53.922768" lon="26.826533"><time>1970-01-01T00:00:01.000Z</time></trkpt>
			<trkpt lat="53.921975" lon="26.825375"><time>1970-01-01T00:00:01.000Z</time></trkpt>
			<trkpt lat="53.921631" lon="26.824795"><time>1970-01-01T00:00:01.000Z</time></trkpt>
			<trkpt lat="53.919829" lon="26.819946"><time>1970-01-01T00:00:01.000Z</time></trkpt>
			<trkpt lat="53.919335" lon="26.818895"><time>1970-01-01T00:00:01.000Z</time></trkpt>
			<trkpt lat="53.918370" lon="26.817264"><time>1970-01-01T00:00:01.000Z</time></trkpt>
			<trkpt lat="53.915366" lon="26.812865"><time>1970-01-01T00:00:01.000Z</time></trkpt>
			<trkpt lat="53.912297" lon="26.808573"><time>1970-01-01T00:00:01.000Z</time></trkpt>
			<trkpt lat="53.910366" lon="26.805762"><time>1970-01-01T00:00:01.000Z</time></trkpt>
			<trkpt lat="53.909379" lon="26.804432"><time>1970-01-01T00:00:01.000Z</time></trkpt>
			<trkpt lat="53.908392" lon="26.802952"><time>1970-01-01T00:00:01.000Z</time></trkpt>
			<trkpt lat="53.908263" lon="26.802844"><time>1970-01-01T00:00:01.000Z</time></trkpt>
			<trkpt lat="53.908070" lon="26.802866"><time>1970-01-01T00:00:01.000Z</time></trkpt>
			<trkpt lat="53.907276" lon="26.806363"><time>1970-01-01T00:00:01.000Z</time></trkpt>
			<trkpt lat="53.907147" lon="26.806535"><time>1970-01-01T00:00:01.000Z</time></trkpt>
			<trkpt lat="53.906504" lon="26.806556"><time>1970-01-01T00:00:01.000Z</time></trkpt>
			<trkpt lat="53.906418" lon="26.806621"><time>1970-01-01T00:00:01.000Z</time></trkpt>
			<trkpt lat="53.906310" lon="26.806578"><time>1970-01-01T00:00:01.000Z</time></trkpt>
			<trkpt lat="53.905152" lon="26.805333"><time>1970-01-01T00:00:01.000Z</time></trkpt>
			<trkpt lat="53.905087" lon="26.805376"><time>1970-01-01T00:00:01.000Z</time></trkpt>
			<trkpt lat="53.904250" lon="26.807715"><time>1970-01-01T00:00:01.000Z</time></trkpt>
			<trkpt lat="53.904143" lon="26.807758"><time>1970-01-01T00:00:01.000Z</time></trkpt>
			<trkpt lat="53.896354" lon="26.800934"><time>1970-01-01T00:00:01.000Z</time></trkpt>
			<trkpt lat="53.895989" lon="26.800763"><time>1970-01-01T00:00:01.000Z</time></trkpt>
			<trkpt lat="53.895710" lon="26.800763"><time>1970-01-01T00:00:01.000Z</time></trkpt>
			<trkpt lat="53.891226" lon="26.802608"><time>1970-01-01T00:00:01.000Z</time></trkpt>
			<trkpt lat="53.889874" lon="26.803230"><time>1970-01-01T00:00:01.000Z</time></trkpt>
			<trkpt lat="53.888780" lon="26.803681"><time>1970-01-01T00:00:01.000Z</time></trkpt>
			<trkpt lat="53.888071" lon="26.803767"><time>1970-01-01T00:00:01.000Z</time></trkpt>
			<trkpt lat="53.887406" lon="26.803724"><time>1970-01-01T00:00:01.000Z</time></trkpt>
			<trkpt lat="53.886355" lon="26.803488"><time>1970-01-01T00:00:01.000Z</time></trkpt>
			<trkpt lat="53.885647" lon="26.803424"><time>1970-01-01T00:00:01.000Z</time></trkpt>
			<trkpt lat="53.881977" lon="26.802437"><time>1970-01-01T00:00:01.000Z</time></trkpt>
			<trkpt lat="53.881355" lon="26.802394"><time>1970-01-01T00:00:01.000Z</time></trkpt>
			<trkpt lat="53.877128" lon="26.801664"><time>1970-01-01T00:00:01.000Z</time></trkpt>
			<trkpt lat="53.876913" lon="26.801535"><time>1970-01-01T00:00:01.000Z</time></trkpt>
			<trkpt lat="53.876785" lon="26.801278"><time>1970-01-01T00:00:01.000Z</time></trkpt>
			<trkpt lat="53.876484" lon="26.797415"><time>1970-01-01T00:00:01.000Z</time></trkpt>
			<trkpt lat="53.876248" lon="26.794926"><time>1970-01-01T00:00:01.000Z</time></trkpt>
			<trkpt lat="53.876012" lon="26.785850"><time>1970-01-01T00:00:01.000Z</time></trkpt>
			<trkpt lat="53.875926" lon="26.785571"><time>1970-01-01T00:00:01.000Z</time></trkpt>
			<trkpt lat="53.875798" lon="26.785421"><time>1970-01-01T00:00:01.000Z</time></trkpt>
			<trkpt lat="53.868781" lon="26.784734"><time>1970-01-01T00:00:01.000Z</time></trkpt>
			<trkpt lat="53.868309" lon="26.784734"><time>1970-01-01T00:00:01.000Z</time></trkpt>
			<trkpt lat="53.868094" lon="26.784906"><time>1970-01-01T00:00:01.000Z</time></trkpt>
			<trkpt lat="53.865069" lon="26.789948"><time>1970-01-01T00:00:01.000Z</time></trkpt>
			<trkpt lat="53.864017" lon="26.791257"><time>1970-01-01T00:00:01.000Z</time></trkpt>
			<trkpt lat="53.861786" lon="26.792802"><time>1970-01-01T00:00:01.000Z</time></trkpt>
			<trkpt lat="53.861593" lon="26.792823"><time>1970-01-01T00:00:01.000Z</time></trkpt>
			<trkpt lat="53.861528" lon="26.792502"><time>1970-01-01T00:00:01.000Z</time></trkpt>
			<trkpt lat="53.861421" lon="26.789219"><time>1970-01-01T00:00:01.000Z</time></trkpt>
			<trkpt lat="53.861249" lon="26.789090"><time>1970-01-01T00:00:01.000Z</time></trkpt>
			<trkpt lat="53.860155" lon="26.789583"><time>1970-01-01T00:00:01.000Z</time></trkpt>
			<trkpt lat="53.859962" lon="26.789991"><time>1970-01-01T00:00:01.000Z</time></trkpt>
			<trkpt lat="53.859855" lon="26.792051"><time>1970-01-01T00:00:01.000Z</time></trkpt>
			<trkpt lat="53.859061" lon="26.793832"><time>1970-01-01T00:00:01.000Z</time></trkpt>
			<trkpt lat="53.858310" lon="26.795291"><time>1970-01-01T00:00:01.000Z</time></trkpt>
			<trkpt lat="53.857966" lon="26.795742"><time>1970-01-01T00:00:01.000Z</time></trkpt>
			<trkpt lat="53.856099" lon="26.797244"><time>1970-01-01T00:00:01.000Z</time></trkpt>
			<trkpt lat="53.854211" lon="26.798617"><time>1970-01-01T00:00:01.000Z</time></trkpt>
			<trkpt lat="53.852108" lon="26.800763"><time>1970-01-01T00:00:01.000Z</time></trkpt>
			<trkpt lat="53.850950" lon="26.802029"><time>1970-01-01T00:00:01.000Z</time></trkpt>
			<trkpt lat="53.849340" lon="26.804775"><time>1970-01-01T00:00:01.000Z</time></trkpt>
			<trkpt lat="53.848139" lon="26.807758"><time>1970-01-01T00:00:01.000Z</time></trkpt>
			<trkpt lat="53.848010" lon="26.808595"><time>1970-01-01T00:00:01.000Z</time></trkpt>
			<trkpt lat="53.847559" lon="26.812607"><time>1970-01-01T00:00:01.000Z</time></trkpt>
			<trkpt lat="53.846937" lon="26.816684"><time>1970-01-01T00:00:01.000Z</time></trkpt>
			<trkpt lat="53.846744" lon="26.819045"><time>1970-01-01T00:00:01.000Z</time></trkpt>
			<trkpt lat="53.846637" lon="26.822092"><time>1970-01-01T00:00:01.000Z</time></trkpt>
			<trkpt lat="53.845950" lon="26.827392"><time>1970-01-01T00:00:01.000Z</time></trkpt>
			<trkpt lat="53.845821" lon="26.828722"><time>1970-01-01T00:00:01.000Z</time></trkpt>
			<trkpt lat="53.845929" lon="26.829623"><time>1970-01-01T00:00:01.000Z</time></trkpt>
			<trkpt lat="53.846272" lon="26.830417"><time>1970-01-01T00:00:01.000Z</time></trkpt>
			<trkpt lat="53.847366" lon="26.832155"><time>1970-01-01T00:00:01.000Z</time></trkpt>
			<trkpt lat="53.847795" lon="26.833078"><time>1970-01-01T00:00:01.000Z</time></trkpt>
			<trkpt lat="53.849061" lon="26.836662"><time>1970-01-01T00:00:01.000Z</time></trkpt>
			<trkpt lat="53.849383" lon="26.837820"><time>1970-01-01T00:00:01.000Z</time></trkpt>
			<trkpt lat="53.849662" lon="26.840159"><time>1970-01-01T00:00:01.000Z</time></trkpt>
			<trkpt lat="53.849855" lon="26.840953"><time>1970-01-01T00:00:01.000Z</time></trkpt>
			<trkpt lat="53.850327" lon="26.842584"><time>1970-01-01T00:00:01.000Z</time></trkpt>
			<trkpt lat="53.850971" lon="26.843936"><time>1970-01-01T00:00:01.000Z</time></trkpt>
			<trkpt lat="53.852151" lon="26.846768"><time>1970-01-01T00:00:01.000Z</time></trkpt>
			<trkpt lat="53.852774" lon="26.848807"><time>1970-01-01T00:00:01.000Z</time></trkpt>
			<trkpt lat="53.853246" lon="26.850502"><time>1970-01-01T00:00:01.000Z</time></trkpt>
			<trkpt lat="53.853653" lon="26.852369"><time>1970-01-01T00:00:01.000Z</time></trkpt>
			<trkpt lat="53.854619" lon="26.860480"><time>1970-01-01T00:00:01.000Z</time></trkpt>
			<trkpt lat="53.855048" lon="26.863462"><time>1970-01-01T00:00:01.000Z</time></trkpt>
			<trkpt lat="53.855177" lon="26.863870"><time>1970-01-01T00:00:01.000Z</time></trkpt>
			<trkpt lat="53.855542" lon="26.864449"><time>1970-01-01T00:00:01.000Z</time></trkpt>
			<trkpt lat="53.855906" lon="26.864900"><time>1970-01-01T00:00:01.000Z</time></trkpt>
			<trkpt lat="53.856722" lon="26.865608"><time>1970-01-01T00:00:01.000Z</time></trkpt>
			<trkpt lat="53.857194" lon="26.865801"><time>1970-01-01T00:00:01.000Z</time></trkpt>
			<trkpt lat="53.858889" lon="26.865994"><time>1970-01-01T00:00:01.000Z</time></trkpt>
			<trkpt lat="53.859769" lon="26.866509"><time>1970-01-01T00:00:01.000Z</time></trkpt>
			<trkpt lat="53.860134" lon="26.866981"><time>1970-01-01T00:00:01.000Z</time></trkpt>
			<trkpt lat="53.861442" lon="26.870050"><time>1970-01-01T00:00:01.000Z</time></trkpt>
			<trkpt lat="53.861764" lon="26.870393"><time>1970-01-01T00:00:01.000Z</time></trkpt>
			<trkpt lat="53.862193" lon="26.870565"><time>1970-01-01T00:00:01.000Z</time></trkpt>
			<trkpt lat="53.862644" lon="26.870522"><time>1970-01-01T00:00:01.000Z</time></trkpt>
			<trkpt lat="53.864017" lon="26.870007"><time>1970-01-01T00:00:01.000Z</time></trkpt>
			<trkpt lat="53.867494" lon="26.868912"><time>1970-01-01T00:00:01.000Z</time></trkpt>
			<trkpt lat="53.868073" lon="26.868912"><time>1970-01-01T00:00:01.000Z</time></trkpt>
			<trkpt lat="53.868674" lon="26.869277"><time>1970-01-01T00:00:01.000Z</time></trkpt>
			<trkpt lat="53.872107" lon="26.871916"><time>1970-01-01T00:00:01.000Z</time></trkpt>
			<trkpt lat="53.872836" lon="26.872324"><time>1970-01-01T00:00:01.000Z</time></trkpt>
			<trkpt lat="53.874467" lon="26.873032"><time>1970-01-01T00:00:01.000Z</time></trkpt>
			<trkpt lat="53.874725" lon="26.873204"><time>1970-01-01T00:00:01.000Z</time></trkpt>
			<trkpt lat="53.874832" lon="26.873461"><time>1970-01-01T00:00:01.000Z</time></trkpt>
			<trkpt lat="53.878952" lon="26.875736"><time>1970-01-01T00:00:01.000Z</time></trkpt>
			<trkpt lat="53.884509" lon="26.877581"><time>1970-01-01T00:00:01.000Z</time></trkpt>
			<trkpt lat="53.884552" lon="26.877796"><time>1970-01-01T00:00:01.000Z</time></trkpt>
			<trkpt lat="53.884166" lon="26.881122"><time>1970-01-01T00:00:01.000Z</time></trkpt>
			<trkpt lat="53.883479" lon="26.913416"><time>1970-01-01T00:00:01.000Z</time></trkpt>
			<trkpt lat="53.883329" lon="26.913544"><time>1970-01-01T00:00:01.000Z</time></trkpt>
			<trkpt lat="53.883029" lon="26.913308"><time>1970-01-01T00:00:01.000Z</time></trkpt>
			<trkpt lat="53.878759" lon="26.908673"><time>1970-01-01T00:00:01.000Z</time></trkpt>
			<trkpt lat="53.878222" lon="26.908180"><time>1970-01-01T00:00:01.000Z</time></trkpt>
			<trkpt lat="53.877986" lon="26.907751"><time>1970-01-01T00:00:01.000Z</time></trkpt>
			<trkpt lat="53.876055" lon="26.906249"><time>1970-01-01T00:00:01.000Z</time></trkpt>
			<trkpt lat="53.874081" lon="26.904811"><time>1970-01-01T00:00:01.000Z</time></trkpt>
			<trkpt lat="53.873394" lon="26.904189"><time>1970-01-01T00:00:01.000Z</time></trkpt>
			<trkpt lat="53.871935" lon="26.902644"><time>1970-01-01T00:00:01.000Z</time></trkpt>
			<trkpt lat="53.871377" lon="26.901979"><time>1970-01-01T00:00:01.000Z</time></trkpt>
			<trkpt lat="53.870111" lon="26.900627"><time>1970-01-01T00:00:01.000Z</time></trkpt>
			<trkpt lat="53.869339" lon="26.899854"><time>1970-01-01T00:00:01.000Z</time></trkpt>
			<trkpt lat="53.868545" lon="26.899146"><time>1970-01-01T00:00:01.000Z</time></trkpt>
			<trkpt lat="53.866292" lon="26.896700"><time>1970-01-01T00:00:01.000Z</time></trkpt>
			<trkpt lat="53.864597" lon="26.895434"><time>1970-01-01T00:00:01.000Z</time></trkpt>
			<trkpt lat="53.863653" lon="26.894640"><time>1970-01-01T00:00:01.000Z</time></trkpt>
			<trkpt lat="53.863245" lon="26.894340"><time>1970-01-01T00:00:01.000Z</time></trkpt>
			<trkpt lat="53.862944" lon="26.894318"><time>1970-01-01T00:00:01.000Z</time></trkpt>
			<trkpt lat="53.861550" lon="26.894554"><time>1970-01-01T00:00:01.000Z</time></trkpt>
			<trkpt lat="53.861228" lon="26.894705"><time>1970-01-01T00:00:01.000Z</time></trkpt>
			<trkpt lat="53.861121" lon="26.894790"><time>1970-01-01T00:00:01.000Z</time></trkpt>
			<trkpt lat="53.860734" lon="26.895241"><time>1970-01-01T00:00:01.000Z</time></trkpt>
			<trkpt lat="53.860606" lon="26.895327"><time>1970-01-01T00:00:01.000Z</time></trkpt>
			<trkpt lat="53.860069" lon="26.895327"><time>1970-01-01T00:00:01.000Z</time></trkpt>
			<trkpt lat="53.858674" lon="26.896528"><time>1970-01-01T00:00:01.000Z</time></trkpt>
			<trkpt lat="53.857237" lon="26.897666"><time>1970-01-01T00:00:01.000Z</time></trkpt>
			<trkpt lat="53.857044" lon="26.897966"><time>1970-01-01T00:00:01.000Z</time></trkpt>
			<trkpt lat="53.856636" lon="26.899039"><time>1970-01-01T00:00:01.000Z</time></trkpt>
			<trkpt lat="53.856400" lon="26.899468"><time>1970-01-01T00:00:01.000Z</time></trkpt>
			<trkpt lat="53.856164" lon="26.899833"><time>1970-01-01T00:00:01.000Z</time></trkpt>
			<trkpt lat="53.855842" lon="26.900198"><time>1970-01-01T00:00:01.000Z</time></trkpt>
			<trkpt lat="53.855606" lon="26.900369"><time>1970-01-01T00:00:01.000Z</time></trkpt>
			<trkpt lat="53.855241" lon="26.900455"><time>1970-01-01T00:00:01.000Z</time></trkpt>
			<trkpt lat="53.854018" lon="26.900477"><time>1970-01-01T00:00:01.000Z</time></trkpt>
			<trkpt lat="53.853804" lon="26.900648"><time>1970-01-01T00:00:01.000Z</time></trkpt>
			<trkpt lat="53.852731" lon="26.902107"><time>1970-01-01T00:00:01.000Z</time></trkpt>
			<trkpt lat="53.852473" lon="26.902622"><time>1970-01-01T00:00:01.000Z</time></trkpt>
			<trkpt lat="53.851958" lon="26.904725"><time>1970-01-01T00:00:01.000Z</time></trkpt>
			<trkpt lat="53.851078" lon="26.907322"><time>1970-01-01T00:00:01.000Z</time></trkpt>
			<trkpt lat="53.850585" lon="26.908931"><time>1970-01-01T00:00:01.000Z</time></trkpt>
			<trkpt lat="53.850370" lon="26.909403"><time>1970-01-01T00:00:01.000Z</time></trkpt>
			<trkpt lat="53.848675" lon="26.911506"><time>1970-01-01T00:00:01.000Z</time></trkpt>
			<trkpt lat="53.846894" lon="26.913845"><time>1970-01-01T00:00:01.000Z</time></trkpt>
			<trkpt lat="53.846572" lon="26.914081"><time>1970-01-01T00:00:01.000Z</time></trkpt>
			<trkpt lat="53.845607" lon="26.914338"><time>1970-01-01T00:00:01.000Z</time></trkpt>
			<trkpt lat="53.845242" lon="26.914488"><time>1970-01-01T00:00:01.000Z</time></trkpt>
			<trkpt lat="53.844212" lon="26.914725"><time>1970-01-01T00:00:01.000Z</time></trkpt>
			<trkpt lat="53.844105" lon="26.914939"><time>1970-01-01T00:00:01.000Z</time></trkpt>
			<trkpt lat="53.844040" lon="26.915197"><time>1970-01-01T00:00:01.000Z</time></trkpt>
			<trkpt lat="53.844663" lon="26.918265"><time>1970-01-01T00:00:01.000Z</time></trkpt>
			<trkpt lat="53.845092" lon="26.919488"><time>1970-01-01T00:00:01.000Z</time></trkpt>
			<trkpt lat="53.845328" lon="26.919960"><time>1970-01-01T00:00:01.000Z</time></trkpt>
			<trkpt lat="53.847280" lon="26.923007"><time>1970-01-01T00:00:01.000Z</time></trkpt>
			<trkpt lat="53.847581" lon="26.923608"><time>1970-01-01T00:00:01.000Z</time></trkpt>
			<trkpt lat="53.847881" lon="26.924380"><time>1970-01-01T00:00:01.000Z</time></trkpt>
			<trkpt lat="53.848139" lon="26.925432"><time>1970-01-01T00:00:01.000Z</time></trkpt>
			<trkpt lat="53.848203" lon="26.925840"><time>1970-01-01T00:00:01.000Z</time></trkpt>
			<trkpt lat="53.848182" lon="26.926397"><time>1970-01-01T00:00:01.000Z</time></trkpt>
			<trkpt lat="53.848010" lon="26.928050"><time>1970-01-01T00:00:01.000Z</time></trkpt>
			<trkpt lat="53.848096" lon="26.929123"><time>1970-01-01T00:00:01.000Z</time></trkpt>
			<trkpt lat="53.848461" lon="26.930303"><time>1970-01-01T00:00:01.000Z</time></trkpt>
			<trkpt lat="53.849104" lon="26.932084"><time>1970-01-01T00:00:01.000Z</time></trkpt>
			<trkpt lat="53.850263" lon="26.934680"><time>1970-01-01T00:00:01.000Z</time></trkpt>
			<trkpt lat="53.852323" lon="26.939508"><time>1970-01-01T00:00:01.000Z</time></trkpt>
			<trkpt lat="53.852752" lon="26.940366"><time>1970-01-01T00:00:01.000Z</time></trkpt>
			<trkpt lat="53.853052" lon="26.940774"><time>1970-01-01T00:00:01.000Z</time></trkpt>
			<trkpt lat="53.853138" lon="26.940946"><time>1970-01-01T00:00:01.000Z</time></trkpt>
			<trkpt lat="53.853095" lon="26.941203"><time>1970-01-01T00:00:01.000Z</time></trkpt>
			<trkpt lat="53.852988" lon="26.941504"><time>1970-01-01T00:00:01.000Z</time></trkpt>
			<trkpt lat="53.853010" lon="26.942019"><time>1970-01-01T00:00:01.000Z</time></trkpt>
			<trkpt lat="53.853095" lon="26.942276"><time>1970-01-01T00:00:01.000Z</time></trkpt>
			<trkpt lat="53.853739" lon="26.943328"><time>1970-01-01T00:00:01.000Z</time></trkpt>
			<trkpt lat="53.853782" lon="26.943521"><time>1970-01-01T00:00:01.000Z</time></trkpt>
			<trkpt lat="53.853782" lon="26.943800"><time>1970-01-01T00:00:01.000Z</time></trkpt>
			<trkpt lat="53.853417" lon="26.946181"><time>1970-01-01T00:00:01.000Z</time></trkpt>
			<trkpt lat="53.853396" lon="26.946911"><time>1970-01-01T00:00:01.000Z</time></trkpt>
			<trkpt lat="53.853567" lon="26.947555"><time>1970-01-01T00:00:01.000Z</time></trkpt>
			<trkpt lat="53.853846" lon="26.949078"><time>1970-01-01T00:00:01.000Z</time></trkpt>
			<trkpt lat="53.853868" lon="26.949636"><time>1970-01-01T00:00:01.000Z</time></trkpt>
			<trkpt lat="53.853932" lon="26.949937"><time>1970-01-01T00:00:01.000Z</time></trkpt>
			<trkpt lat="53.854168" lon="26.950280"><time>1970-01-01T00:00:01.000Z</time></trkpt>
			<trkpt lat="53.854211" lon="26.950516"><time>1970-01-01T00:00:01.000Z</time></trkpt>
			<trkpt lat="53.854276" lon="26.953520"><time>1970-01-01T00:00:01.000Z</time></trkpt>
			<trkpt lat="53.854211" lon="26.954099"><time>1970-01-01T00:00:01.000Z</time></trkpt>
			<trkpt lat="53.853718" lon="26.956417"><time>1970-01-01T00:00:01.000Z</time></trkpt>
			<trkpt lat="53.853052" lon="26.958305"><time>1970-01-01T00:00:01.000Z</time></trkpt>
			<trkpt lat="53.852087" lon="26.960386"><time>1970-01-01T00:00:01.000Z</time></trkpt>
			<trkpt lat="53.851701" lon="26.961717"><time>1970-01-01T00:00:01.000Z</time></trkpt>
			<trkpt lat="53.850735" lon="26.961588"><time>1970-01-01T00:00:01.000Z</time></trkpt>
			<trkpt lat="53.849963" lon="26.961610"><time>1970-01-01T00:00:01.000Z</time></trkpt>
			<trkpt lat="53.849877" lon="26.961652"><time>1970-01-01T00:00:01.000Z</time></trkpt>
			<trkpt lat="53.848782" lon="26.961760"><time>1970-01-01T00:00:01.000Z</time></trkpt>
			<trkpt lat="53.848632" lon="26.961888"><time>1970-01-01T00:00:01.000Z</time></trkpt>
			<trkpt lat="53.848310" lon="26.962468"><time>1970-01-01T00:00:01.000Z</time></trkpt>
			<trkpt lat="53.848096" lon="26.962747"><time>1970-01-01T00:00:01.000Z</time></trkpt>
			<trkpt lat="53.847946" lon="26.962854"><time>1970-01-01T00:00:01.000Z</time></trkpt>
			<trkpt lat="53.847581" lon="26.962983"><time>1970-01-01T00:00:01.000Z</time></trkpt>
			<trkpt lat="53.847388" lon="26.962961"><time>1970-01-01T00:00:01.000Z</time></trkpt>
			<trkpt lat="53.847237" lon="26.962897"><time>1970-01-01T00:00:01.000Z</time></trkpt>
			<trkpt lat="53.847066" lon="26.962361"><time>1970-01-01T00:00:01.000Z</time></trkpt>
			<trkpt lat="53.846937" lon="26.962125"><time>1970-01-01T00:00:01.000Z</time></trkpt>
			<trkpt lat="53.846744" lon="26.961996"><time>1970-01-01T00:00:01.000Z</time></trkpt>
			<trkpt lat="53.845006" lon="26.962017"><time>1970-01-01T00:00:01.000Z</time></trkpt>
			<trkpt lat="53.843246" lon="26.961910"><time>1970-01-01T00:00:01.000Z</time></trkpt>
			<trkpt lat="53.842967" lon="26.961867"><time>1970-01-01T00:00:01.000Z</time></trkpt>
			<trkpt lat="53.842624" lon="26.961652"><time>1970-01-01T00:00:01.000Z</time></trkpt>
			<trkpt lat="53.841251" lon="26.960258"><time>1970-01-01T00:00:01.000Z</time></trkpt>
			<trkpt lat="53.840650" lon="26.959786"><time>1970-01-01T00:00:01.000Z</time></trkpt>
			<trkpt lat="53.840006" lon="26.959871"><time>1970-01-01T00:00:01.000Z</time></trkpt>
			<trkpt lat="53.839513" lon="26.959829"><time>1970-01-01T00:00:01.000Z</time></trkpt>
			<trkpt lat="53.838418" lon="26.959507"><time>1970-01-01T00:00:01.000Z</time></trkpt>
			<trkpt lat="53.837796" lon="26.959442"><time>1970-01-01T00:00:01.000Z</time></trkpt>
			<trkpt lat="53.835951" lon="26.959078"><time>1970-01-01T00:00:01.000Z</time></trkpt>
			<trkpt lat="53.835779" lon="26.959120"><time>1970-01-01T00:00:01.000Z</time></trkpt>
			<trkpt lat="53.835629" lon="26.959206"><time>1970-01-01T00:00:01.000Z</time></trkpt>
			<trkpt lat="53.835457" lon="26.959206"><time>1970-01-01T00:00:01.000Z</time></trkpt>
			<trkpt lat="53.834813" lon="26.958842"><time>1970-01-01T00:00:01.000Z</time></trkpt>
			<trkpt lat="53.833032" lon="26.958842"><time>1970-01-01T00:00:01.000Z</time></trkpt>
			<trkpt lat="53.832625" lon="26.958713"><time>1970-01-01T00:00:01.000Z</time></trkpt>
			<trkpt lat="53.832453" lon="26.958520"><time>1970-01-01T00:00:01.000Z</time></trkpt>
			<trkpt lat="53.832324" lon="26.958219"><time>1970-01-01T00:00:01.000Z</time></trkpt>
			<trkpt lat="53.831380" lon="26.957575"><time>1970-01-01T00:00:01.000Z</time></trkpt>
			<trkpt lat="53.830071" lon="26.956782"><time>1970-01-01T00:00:01.000Z</time></trkpt>
			<trkpt lat="53.829149" lon="26.956095"><time>1970-01-01T00:00:01.000Z</time></trkpt>
			<trkpt lat="53.828655" lon="26.956052"><time>1970-01-01T00:00:01.000Z</time></trkpt>
			<trkpt lat="53.827282" lon="26.956159"><time>1970-01-01T00:00:01.000Z</time></trkpt>
			<trkpt lat="53.827110" lon="26.956417"><time>1970-01-01T00:00:01.000Z</time></trkpt>
			<trkpt lat="53.826874" lon="26.956910"><time>1970-01-01T00:00:01.000Z</time></trkpt>
			<trkpt lat="53.826574" lon="26.957661"><time>1970-01-01T00:00:01.000Z</time></trkpt>
			<trkpt lat="53.826295" lon="26.958520"><time>1970-01-01T00:00:01.000Z</time></trkpt>
			<trkpt lat="53.825737" lon="26.960472"><time>1970-01-01T00:00:01.000Z</time></trkpt>
			<trkpt lat="53.825243" lon="26.961502"><time>1970-01-01T00:00:01.000Z</time></trkpt>
			<trkpt lat="53.824986" lon="26.961910"><time>1970-01-01T00:00:01.000Z</time></trkpt>
			<trkpt lat="53.824406" lon="26.962253"><time>1970-01-01T00:00:01.000Z</time></trkpt>
			<trkpt lat="53.823956" lon="26.962661"><time>1970-01-01T00:00:01.000Z</time></trkpt>
			<trkpt lat="53.823655" lon="26.962704"><time>1970-01-01T00:00:01.000Z</time></trkpt>
			<trkpt lat="53.823055" lon="26.962661"><time>1970-01-01T00:00:01.000Z</time></trkpt>
			<trkpt lat="53.822518" lon="26.962725"><time>1970-01-01T00:00:01.000Z</time></trkpt>
			<trkpt lat="53.822132" lon="26.962961"><time>1970-01-01T00:00:01.000Z</time></trkpt>
			<trkpt lat="53.821488" lon="26.962876"><time>1970-01-01T00:00:01.000Z</time></trkpt>
			<trkpt lat="53.821209" lon="26.963069"><time>1970-01-01T00:00:01.000Z</time></trkpt>
			<trkpt lat="53.820995" lon="26.963584"><time>1970-01-01T00:00:01.000Z</time></trkpt>
			<trkpt lat="53.820995" lon="26.963948"><time>1970-01-01T00:00:01.000Z</time></trkpt>
			<trkpt lat="53.820802" lon="26.964292"><time>1970-01-01T00:00:01.000Z</time></trkpt>
			<trkpt lat="53.820759" lon="26.965000"><time>1970-01-01T00:00:01.000Z</time></trkpt>
			<trkpt lat="53.820694" lon="26.965214"><time>1970-01-01T00:00:01.000Z</time></trkpt>
			<trkpt lat="53.818591" lon="26.967210"><time>1970-01-01T00:00:01.000Z</time></trkpt>
			<trkpt lat="53.818119" lon="26.967467"><time>1970-01-01T00:00:01.000Z</time></trkpt>
			<trkpt lat="53.817776" lon="26.967725"><time>1970-01-01T00:00:01.000Z</time></trkpt>
			<trkpt lat="53.817583" lon="26.967961"><time>1970-01-01T00:00:01.000Z</time></trkpt>
			<trkpt lat="53.817497" lon="26.968197"><time>1970-01-01T00:00:01.000Z</time></trkpt>
			<trkpt lat="53.817519" lon="26.968562"><time>1970-01-01T00:00:01.000Z</time></trkpt>
			<trkpt lat="53.817454" lon="26.968669"><time>1970-01-01T00:00:01.000Z</time></trkpt>
			<trkpt lat="53.816059" lon="26.966416"><time>1970-01-01T00:00:01.000Z</time></trkpt>
			<trkpt lat="53.815845" lon="26.966502"><time>1970-01-01T00:00:01.000Z</time></trkpt>
			<trkpt lat="53.814901" lon="26.968219"><time>1970-01-01T00:00:01.000Z</time></trkpt>
			<trkpt lat="53.814278" lon="26.969163"><time>1970-01-01T00:00:01.000Z</time></trkpt>
			<trkpt lat="53.813635" lon="26.969442"><time>1970-01-01T00:00:01.000Z</time></trkpt>
			<trkpt lat="53.812841" lon="26.969527"><time>1970-01-01T00:00:01.000Z</time></trkpt>
			<trkpt lat="53.811425" lon="26.969420"><time>1970-01-01T00:00:01.000Z</time></trkpt>
			<trkpt lat="53.810030" lon="26.969613"><time>1970-01-01T00:00:01.000Z</time></trkpt>
			<trkpt lat="53.807906" lon="26.970107"><time>1970-01-01T00:00:01.000Z</time></trkpt>
			<trkpt lat="53.807734" lon="26.970278"><time>1970-01-01T00:00:01.000Z</time></trkpt>
			<trkpt lat="53.805738" lon="26.975621"><time>1970-01-01T00:00:01.000Z</time></trkpt>
			<trkpt lat="53.804150" lon="26.979677"><time>1970-01-01T00:00:01.000Z</time></trkpt>
			<trkpt lat="53.803464" lon="26.980771"><time>1970-01-01T00:00:01.000Z</time></trkpt>
			<trkpt lat="53.801618" lon="26.983926"><time>1970-01-01T00:00:01.000Z</time></trkpt>
			<trkpt lat="53.801168" lon="26.984634"><time>1970-01-01T00:00:01.000Z</time></trkpt>
			<trkpt lat="53.800588" lon="26.985234"><time>1970-01-01T00:00:01.000Z</time></trkpt>
			<trkpt lat="53.799451" lon="26.985900"><time>1970-01-01T00:00:01.000Z</time></trkpt>
			<trkpt lat="53.798893" lon="26.986179"><time>1970-01-01T00:00:01.000Z</time></trkpt>
			<trkpt lat="53.798765" lon="26.986136"><time>1970-01-01T00:00:01.000Z</time></trkpt>
			<trkpt lat="53.796168" lon="26.978625"><time>1970-01-01T00:00:01.000Z</time></trkpt>
			<trkpt lat="53.795653" lon="26.976995"><time>1970-01-01T00:00:01.000Z</time></trkpt>
			<trkpt lat="53.795524" lon="26.977038"><time>1970-01-01T00:00:01.000Z</time></trkpt>
			<trkpt lat="53.792971" lon="26.979956"><time>1970-01-01T00:00:01.000Z</time></trkpt>
			<trkpt lat="53.790203" lon="26.983346"><time>1970-01-01T00:00:01.000Z</time></trkpt>
			<trkpt lat="53.788851" lon="26.985342"><time>1970-01-01T00:00:01.000Z</time></trkpt>
			<trkpt lat="53.786190" lon="26.989140"><time>1970-01-01T00:00:01.000Z</time></trkpt>
			<trkpt lat="53.783851" lon="26.992680"><time>1970-01-01T00:00:01.000Z</time></trkpt>
			<trkpt lat="53.783358" lon="26.993496"><time>1970-01-01T00:00:01.000Z</time></trkpt>
			<trkpt lat="53.781427" lon="26.998624"><time>1970-01-01T00:00:01.000Z</time></trkpt>
			<trkpt lat="53.780204" lon="27.001757"><time>1970-01-01T00:00:01.000Z</time></trkpt>
			<trkpt lat="53.779989" lon="27.002486"><time>1970-01-01T00:00:01.000Z</time></trkpt>
			<trkpt lat="53.779882" lon="27.003216"><time>1970-01-01T00:00:01.000Z</time></trkpt>
			<trkpt lat="53.779903" lon="27.004182"><time>1970-01-01T00:00:01.000Z</time></trkpt>
			<trkpt lat="53.780011" lon="27.005362"><time>1970-01-01T00:00:01.000Z</time></trkpt>
			<trkpt lat="53.779946" lon="27.005405"><time>1970-01-01T00:00:01.000Z</time></trkpt>
			<trkpt lat="53.779667" lon="27.004825"><time>1970-01-01T00:00:01.000Z</time></trkpt>
			<trkpt lat="53.777135" lon="26.998045"><time>1970-01-01T00:00:01.000Z</time></trkpt>
			<trkpt lat="53.777049" lon="26.998002"><time>1970-01-01T00:00:01.000Z</time></trkpt>
			<trkpt lat="53.776964" lon="26.998045"><time>1970-01-01T00:00:01.000Z</time></trkpt>
			<trkpt lat="53.774474" lon="27.000448"><time>1970-01-01T00:00:01.000Z</time></trkpt>
			<trkpt lat="53.773595" lon="27.001070"><time>1970-01-01T00:00:01.000Z</time></trkpt>
			<trkpt lat="53.772651" lon="27.001821"><time>1970-01-01T00:00:01.000Z</time></trkpt>
			<trkpt lat="53.772565" lon="27.002014"><time>1970-01-01T00:00:01.000Z</time></trkpt>
			<trkpt lat="53.772758" lon="27.002937"><time>1970-01-01T00:00:01.000Z</time></trkpt>
			<trkpt lat="53.772758" lon="27.003538"><time>1970-01-01T00:00:01.000Z</time></trkpt>
			<trkpt lat="53.772457" lon="27.005941"><time>1970-01-01T00:00:01.000Z</time></trkpt>
			<trkpt lat="53.772329" lon="27.006177"><time>1970-01-01T00:00:01.000Z</time></trkpt>
			<trkpt lat="53.771900" lon="27.006628"><time>1970-01-01T00:00:01.000Z</time></trkpt>
			<trkpt lat="53.770612" lon="27.007786"><time>1970-01-01T00:00:01.000Z</time></trkpt>
			<trkpt lat="53.770312" lon="27.008108"><time>1970-01-01T00:00:01.000Z</time></trkpt>
			<trkpt lat="53.770226" lon="27.008301"><time>1970-01-01T00:00:01.000Z</time></trkpt>
			<trkpt lat="53.770097" lon="27.008816"><time>1970-01-01T00:00:01.000Z</time></trkpt>
			<trkpt lat="53.769346" lon="27.013194"><time>1970-01-01T00:00:01.000Z</time></trkpt>
			<trkpt lat="53.768509" lon="27.017056"><time>1970-01-01T00:00:01.000Z</time></trkpt>
			<trkpt lat="53.768102" lon="27.019288"><time>1970-01-01T00:00:01.000Z</time></trkpt>
			<trkpt lat="53.767780" lon="27.021755"><time>1970-01-01T00:00:01.000Z</time></trkpt>
			<trkpt lat="53.767351" lon="27.024502"><time>1970-01-01T00:00:01.000Z</time></trkpt>
			<trkpt lat="53.766664" lon="27.026626"><time>1970-01-01T00:00:01.000Z</time></trkpt>
			<trkpt lat="53.765870" lon="27.028343"><time>1970-01-01T00:00:01.000Z</time></trkpt>
			<trkpt lat="53.763038" lon="27.033085"><time>1970-01-01T00:00:01.000Z</time></trkpt>
			<trkpt lat="53.762544" lon="27.034222"><time>1970-01-01T00:00:01.000Z</time></trkpt>
			<trkpt lat="53.761493" lon="27.036325"><time>1970-01-01T00:00:01.000Z</time></trkpt>
			<trkpt lat="53.761192" lon="27.037334"><time>1970-01-01T00:00:01.000Z</time></trkpt>
			<trkpt lat="53.760720" lon="27.038342"><time>1970-01-01T00:00:01.000Z</time></trkpt>
			<trkpt lat="53.759905" lon="27.039930"><time>1970-01-01T00:00:01.000Z</time></trkpt>
			<trkpt lat="53.759154" lon="27.041260"><time>1970-01-01T00:00:01.000Z</time></trkpt>
			<trkpt lat="53.758188" lon="27.043406"><time>1970-01-01T00:00:01.000Z</time></trkpt>
			<trkpt lat="53.756686" lon="27.046196"><time>1970-01-01T00:00:01.000Z</time></trkpt>
			<trkpt lat="53.756665" lon="27.046496"><time>1970-01-01T00:00:01.000Z</time></trkpt>
			<trkpt lat="53.756665" lon="27.046797"><time>1970-01-01T00:00:01.000Z</time></trkpt>
			<trkpt lat="53.757823" lon="27.051989"><time>1970-01-01T00:00:01.000Z</time></trkpt>
			<trkpt lat="53.758617" lon="27.056410"><time>1970-01-01T00:00:01.000Z</time></trkpt>
			<trkpt lat="53.759347" lon="27.065551"><time>1970-01-01T00:00:01.000Z</time></trkpt>
			<trkpt lat="53.759776" lon="27.069327"><time>1970-01-01T00:00:01.000Z</time></trkpt>
			<trkpt lat="53.760033" lon="27.070829"><time>1970-01-01T00:00:01.000Z</time></trkpt>
			<trkpt lat="53.760441" lon="27.071988"><time>1970-01-01T00:00:01.000Z</time></trkpt>
			<trkpt lat="53.762437" lon="27.075421"><time>1970-01-01T00:00:01.000Z</time></trkpt>
			<trkpt lat="53.764432" lon="27.078382"><time>1970-01-01T00:00:01.000Z</time></trkpt>
			<trkpt lat="53.765055" lon="27.079198"><time>1970-01-01T00:00:01.000Z</time></trkpt>
			<trkpt lat="53.765870" lon="27.080678"><time>1970-01-01T00:00:01.000Z</time></trkpt>
			<trkpt lat="53.765956" lon="27.081107"><time>1970-01-01T00:00:01.000Z</time></trkpt>
			<trkpt lat="53.765934" lon="27.083017"><time>1970-01-01T00:00:01.000Z</time></trkpt>
			<trkpt lat="53.765849" lon="27.083768"><time>1970-01-01T00:00:01.000Z</time></trkpt>
			<trkpt lat="53.765677" lon="27.084583"><time>1970-01-01T00:00:01.000Z</time></trkpt>
			<trkpt lat="53.765720" lon="27.084734"><time>1970-01-01T00:00:01.000Z</time></trkpt>
			<trkpt lat="53.766707" lon="27.086257"><time>1970-01-01T00:00:01.000Z</time></trkpt>
			<trkpt lat="53.767265" lon="27.086751"><time>1970-01-01T00:00:01.000Z</time></trkpt>
			<trkpt lat="53.767780" lon="27.086965"><time>1970-01-01T00:00:01.000Z</time></trkpt>
			<trkpt lat="53.768252" lon="27.087051"><time>1970-01-01T00:00:01.000Z</time></trkpt>
			<trkpt lat="53.772629" lon="27.086622"><time>1970-01-01T00:00:01.000Z</time></trkpt>
			<trkpt lat="53.774625" lon="27.086579"><time>1970-01-01T00:00:01.000Z</time></trkpt>
			<trkpt lat="53.775912" lon="27.086665"><time>1970-01-01T00:00:01.000Z</time></trkpt>
			<trkpt lat="53.780440" lon="27.086558"><time>1970-01-01T00:00:01.000Z</time></trkpt>
			<trkpt lat="53.781684" lon="27.086622"><time>1970-01-01T00:00:01.000Z</time></trkpt>
			<trkpt lat="53.783894" lon="27.086879"><time>1970-01-01T00:00:01.000Z</time></trkpt>
			<trkpt lat="53.784881" lon="27.087480"><time>1970-01-01T00:00:01.000Z</time></trkpt>
			<trkpt lat="53.788100" lon="27.090313"><time>1970-01-01T00:00:01.000Z</time></trkpt>
			<trkpt lat="53.788379" lon="27.090592"><time>1970-01-01T00:00:01.000Z</time></trkpt>
			<trkpt lat="53.788529" lon="27.090549"><time>1970-01-01T00:00:01.000Z</time></trkpt>
			<trkpt lat="53.789366" lon="27.089175"><time>1970-01-01T00:00:01.000Z</time></trkpt>
			<trkpt lat="53.789516" lon="27.088832"><time>1970-01-01T00:00:01.000Z</time></trkpt>
			<trkpt lat="53.789602" lon="27.088489"><time>1970-01-01T00:00:01.000Z</time></trkpt>
			<trkpt lat="53.789645" lon="27.087437"><time>1970-01-01T00:00:01.000Z</time></trkpt>
			<trkpt lat="53.789624" lon="27.086837"><time>1970-01-01T00:00:01.000Z</time></trkpt>
			<trkpt lat="53.790396" lon="27.086922"><time>1970-01-01T00:00:01.000Z</time></trkpt>
			<trkpt lat="53.790396" lon="27.085978"><time>1970-01-01T00:00:01.000Z</time></trkpt>
			<trkpt lat="53.790267" lon="27.084455"><time>1970-01-01T00:00:01.000Z</time></trkpt>
			<trkpt lat="53.790310" lon="27.083940"><time>1970-01-01T00:00:01.000Z</time></trkpt>
			<trkpt lat="53.790396" lon="27.083704"><time>1970-01-01T00:00:01.000Z</time></trkpt>
			<trkpt lat="53.790825" lon="27.083317"><time>1970-01-01T00:00:01.000Z</time></trkpt>
			<trkpt lat="53.791297" lon="27.083253"><time>1970-01-01T00:00:01.000Z</time></trkpt>
			<trkpt lat="53.791877" lon="27.083360"><time>1970-01-01T00:00:01.000Z</time></trkpt>
			<trkpt lat="53.792671" lon="27.083253"><time>1970-01-01T00:00:01.000Z</time></trkpt>
			<trkpt lat="53.793100" lon="27.083124"><time>1970-01-01T00:00:01.000Z</time></trkpt>
			<trkpt lat="53.793765" lon="27.083983"><time>1970-01-01T00:00:01.000Z</time></trkpt>
			<trkpt lat="53.794473" lon="27.084369"><time>1970-01-01T00:00:01.000Z</time></trkpt>
			<trkpt lat="53.794602" lon="27.084498"><time>1970-01-01T00:00:01.000Z</time></trkpt>
			<trkpt lat="53.794731" lon="27.084970"><time>1970-01-01T00:00:01.000Z</time></trkpt>
			<trkpt lat="53.794881" lon="27.085120"><time>1970-01-01T00:00:01.000Z</time></trkpt>
			<trkpt lat="53.795160" lon="27.084970"><time>1970-01-01T00:00:01.000Z</time></trkpt>
			<trkpt lat="53.795331" lon="27.085034"><time>1970-01-01T00:00:01.000Z</time></trkpt>
			<trkpt lat="53.795567" lon="27.084412"><time>1970-01-01T00:00:01.000Z</time></trkpt>
			<trkpt lat="53.795653" lon="27.083704"><time>1970-01-01T00:00:01.000Z</time></trkpt>
			<trkpt lat="53.795653" lon="27.082867"><time>1970-01-01T00:00:01.000Z</time></trkpt>
			<trkpt lat="53.795353" lon="27.081751"><time>1970-01-01T00:00:01.000Z</time></trkpt>
			<trkpt lat="53.795074" lon="27.081322"><time>1970-01-01T00:00:01.000Z</time></trkpt>
			<trkpt lat="53.794924" lon="27.080893"><time>1970-01-01T00:00:01.000Z</time></trkpt>
			<trkpt lat="53.794709" lon="27.078790"><time>1970-01-01T00:00:01.000Z</time></trkpt>
			<trkpt lat="53.794430" lon="27.076773"><time>1970-01-01T00:00:01.000Z</time></trkpt>
			<trkpt lat="53.794452" lon="27.074863"><time>1970-01-01T00:00:01.000Z</time></trkpt>
			<trkpt lat="53.794580" lon="27.074370"><time>1970-01-01T00:00:01.000Z</time></trkpt>
			<trkpt lat="53.794688" lon="27.072009"><time>1970-01-01T00:00:01.000Z</time></trkpt>
			<trkpt lat="53.794838" lon="27.070572"><time>1970-01-01T00:00:01.000Z</time></trkpt>
			<trkpt lat="53.794967" lon="27.068447"><time>1970-01-01T00:00:01.000Z</time></trkpt>
			<trkpt lat="53.795095" lon="27.067310"><time>1970-01-01T00:00:01.000Z</time></trkpt>
			<trkpt lat="53.795803" lon="27.062546"><time>1970-01-01T00:00:01.000Z</time></trkpt>
			<trkpt lat="53.795846" lon="27.061559"><time>1970-01-01T00:00:01.000Z</time></trkpt>
			<trkpt lat="53.795975" lon="27.060594"><time>1970-01-01T00:00:01.000Z</time></trkpt>
			<trkpt lat="53.795997" lon="27.060057"><time>1970-01-01T00:00:01.000Z</time></trkpt>
			<trkpt lat="53.795975" lon="27.057547"><time>1970-01-01T00:00:01.000Z</time></trkpt>
			<trkpt lat="53.795696" lon="27.053899"><time>1970-01-01T00:00:01.000Z</time></trkpt>
			<trkpt lat="53.795632" lon="27.051624"><time>1970-01-01T00:00:01.000Z</time></trkpt>
			<trkpt lat="53.795546" lon="27.050745"><time>1970-01-01T00:00:01.000Z</time></trkpt>
			<trkpt lat="53.794773" lon="27.048792"><time>1970-01-01T00:00:01.000Z</time></trkpt>
			<trkpt lat="53.794580" lon="27.048127"><time>1970-01-01T00:00:01.000Z</time></trkpt>
			<trkpt lat="53.794559" lon="27.047183"><time>1970-01-01T00:00:01.000Z</time></trkpt>
			<trkpt lat="53.794773" lon="27.041196"><time>1970-01-01T00:00:01.000Z</time></trkpt>
			<trkpt lat="53.795267" lon="27.039715"><time>1970-01-01T00:00:01.000Z</time></trkpt>
			<trkpt lat="53.795932" lon="27.038235"><time>1970-01-01T00:00:01.000Z</time></trkpt>
			<trkpt lat="53.796190" lon="27.037527"><time>1970-01-01T00:00:01.000Z</time></trkpt>
			<trkpt lat="53.796554" lon="27.033750"><time>1970-01-01T00:00:01.000Z</time></trkpt>
			<trkpt lat="53.796705" lon="27.031647"><time>1970-01-01T00:00:01.000Z</time></trkpt>
			<trkpt lat="53.796876" lon="27.027270"><time>1970-01-01T00:00:01.000Z</time></trkpt>
			<trkpt lat="53.796984" lon="27.025918"><time>1970-01-01T00:00:01.000Z</time></trkpt>
			<trkpt lat="53.800073" lon="27.026304"><time>1970-01-01T00:00:01.000Z</time></trkpt>
			<trkpt lat="53.804365" lon="27.026734"><time>1970-01-01T00:00:01.000Z</time></trkpt>
			<trkpt lat="53.806489" lon="27.027098"><time>1970-01-01T00:00:01.000Z</time></trkpt>
			<trkpt lat="53.806682" lon="27.026605"><time>1970-01-01T00:00:01.000Z</time></trkpt>
			<trkpt lat="53.806854" lon="27.026498"><time>1970-01-01T00:00:01.000Z</time></trkpt>
			<trkpt lat="53.807004" lon="27.026476"><time>1970-01-01T00:00:01.000Z</time></trkpt>
			<trkpt lat="53.807433" lon="27.026626"><time>1970-01-01T00:00:01.000Z</time></trkpt>
			<trkpt lat="53.808013" lon="27.027377"><time>1970-01-01T00:00:01.000Z</time></trkpt>
			<trkpt lat="53.808678" lon="27.027141"><time>1970-01-01T00:00:01.000Z</time></trkpt>
			<trkpt lat="53.809343" lon="27.027206"><time>1970-01-01T00:00:01.000Z</time></trkpt>
			<trkpt lat="53.809772" lon="27.027291"><time>1970-01-01T00:00:01.000Z</time></trkpt>
			<trkpt lat="53.810695" lon="27.027806"><time>1970-01-01T00:00:01.000Z</time></trkpt>
			<trkpt lat="53.811253" lon="27.027892"><time>1970-01-01T00:00:01.000Z</time></trkpt>
			<trkpt lat="53.812047" lon="27.028085"><time>1970-01-01T00:00:01.000Z</time></trkpt>
			<trkpt lat="53.813291" lon="27.028321"><time>1970-01-01T00:00:01.000Z</time></trkpt>
			<trkpt lat="53.814300" lon="27.028472"><time>1970-01-01T00:00:01.000Z</time></trkpt>
			<trkpt lat="53.814729" lon="27.028000"><time>1970-01-01T00:00:01.000Z</time></trkpt>
			<trkpt lat="53.815566" lon="27.027635"><time>1970-01-01T00:00:01.000Z</time></trkpt>
			<trkpt lat="53.816338" lon="27.027613"><time>1970-01-01T00:00:01.000Z</time></trkpt>
			<trkpt lat="53.816961" lon="27.027699"><time>1970-01-01T00:00:01.000Z</time></trkpt>
			<trkpt lat="53.817733" lon="27.027914"><time>1970-01-01T00:00:01.000Z</time></trkpt>
			<trkpt lat="53.818034" lon="27.028107"><time>1970-01-01T00:00:01.000Z</time></trkpt>
			<trkpt lat="53.818227" lon="27.028171"><time>1970-01-01T00:00:01.000Z</time></trkpt>
			<trkpt lat="53.818527" lon="27.028042"><time>1970-01-01T00:00:01.000Z</time></trkpt>
			<trkpt lat="53.818720" lon="27.028000"><time>1970-01-01T00:00:01.000Z</time></trkpt>
			<trkpt lat="53.818785" lon="27.027849"><time>1970-01-01T00:00:01.000Z</time></trkpt>
			<trkpt lat="53.818892" lon="27.026734"><time>1970-01-01T00:00:01.000Z</time></trkpt>
			<trkpt lat="53.818978" lon="27.026498"><time>1970-01-01T00:00:01.000Z</time></trkpt>
			<trkpt lat="53.819085" lon="27.026283"><time>1970-01-01T00:00:01.000Z</time></trkpt>
			<trkpt lat="53.819214" lon="27.026240"><time>1970-01-01T00:00:01.000Z</time></trkpt>
			<trkpt lat="53.819579" lon="27.026304"><time>1970-01-01T00:00:01.000Z</time></trkpt>
			<trkpt lat="53.819600" lon="27.026176"><time>1970-01-01T00:00:01.000Z</time></trkpt>
			<trkpt lat="53.819793" lon="27.025768"><time>1970-01-01T00:00:01.000Z</time></trkpt>
			<trkpt lat="53.819943" lon="27.025038"><time>1970-01-01T00:00:01.000Z</time></trkpt>
			<trkpt lat="53.819836" lon="27.024523"><time>1970-01-01T00:00:01.000Z</time></trkpt>
			<trkpt lat="53.819836" lon="27.023772"><time>1970-01-01T00:00:01.000Z</time></trkpt>
			<trkpt lat="53.819986" lon="27.023215"><time>1970-01-01T00:00:01.000Z</time></trkpt>
			<trkpt lat="53.819943" lon="27.022421"><time>1970-01-01T00:00:01.000Z</time></trkpt>
			<trkpt lat="53.820029" lon="27.021863"><time>1970-01-01T00:00:01.000Z</time></trkpt>
			<trkpt lat="53.820673" lon="27.020597"><time>1970-01-01T00:00:01.000Z</time></trkpt>
			<trkpt lat="53.821209" lon="27.020768"><time>1970-01-01T00:00:01.000Z</time></trkpt>
		</trkseg>
	</trk>
</gpx>